region;municipality;settlement;latitude;longitude;fullOfficeName
Алтайский край;;Алейск;52.4922222222222;82.77944444444451;Алтайский край, г. Алейск
Алтайский край;;Барнаул;53.348055555555604;83.78;Алтайский край, г. Барнаул
Алтайский край;;Белокуриха;51.9961111111111;84.9838888888889;Алтайский край, г. Белокуриха
Алтайский край;;Бийск;52.539166666666695;85.2138888888889;Алтайский край, г. Бийск
Алтайский край;;Заринск;53.7063888888889;84.9316666666667;Алтайский край, г. Заринск
Алтайский край;Змеиногорский;Змеиногорск;51.1580555555556;82.1872222222222;Алтайский край, Змеиногорский, г. Змеиногорск
Алтайский край;Каменский;Камень-на-Оби;53.7913888888889;81.35444444444441;Алтайский край, Каменский, г. Камень-на-Оби
Алтайский край;Локтевский;Горняк;50.9977777777778;81.4641666666667;Алтайский край, Локтевский, г. Горняк
Алтайский край;;Новоалтайск;53.4119444444444;83.9311111111111;Алтайский край, г. Новоалтайск
Алтайский край;;Рубцовск;51.5011111111111;81.20777777777779;Алтайский край, г. Рубцовск
Алтайский край;;Славгород;52.9994444444444;78.6458333333333;Алтайский край, г. Славгород
Алтайский край;;Яровое;52.925277777777794;78.5727777777778;Алтайский край, г. Яровое
Амурская область;;Белогорск;50.921388888888906;128.473888888889;Амурская область, г. Белогорск
Амурская область;;Благовещенск;50.2905555555556;127.52722222222201;Амурская область, г. Благовещенск
Амурская область;Завитинский;Завитинск;50.1063888888889;129.439444444444;Амурская область, Завитинский, г. Завитинск
Амурская область;;Зея;53.734166666666695;127.26583333333299;Амурская область, г. Зея
Амурская область;Посёлок Углегорск;Циолковский;51.7597222222222;128.119166666667;Амурская область, Посёлок Углегорск, г. Циолковский
Амурская область;;Райчихинск;49.7941666666667;129.411388888889;Амурская область, г. Райчихинск
Амурская область;;Свободный;51.375833333333304;128.134166666667;Амурская область, г. Свободный
Амурская область;Сковородинский;Сковородино;53.9872222222222;123.943611111111;Амурская область, Сковородинский, г. Сковородино
Амурская область;;Тында;55.154722222222205;124.729166666667;Амурская область, г. Тында
Амурская область;;Шимановск;51.9994444444444;127.676111111111;Амурская область, г. Шимановск
Архангельская область;;Архангельск;64.5430555555556;40.537222222222205;Архангельская область, г. Архангельск
Архангельская область;Вельский муниципальный район;Вельск;61.0658333333333;42.103333333333296;Архангельская область, Вельский муниципальный район, г. Вельск
Архангельская область;Каргопольский муниципальный район;Каргополь;61.5052777777778;38.9472222222222;Архангельская область, Каргопольский муниципальный район, г. Каргополь
Архангельская область;;Коряжма;61.315277777777794;47.15972222222221;Архангельская область, г. Коряжма
Архангельская область;;Котлас;61.2522222222222;46.6475;Архангельская область, г. Котлас
Архангельская область;Котласский муниципальный район;Сольвычегодск;61.331944444444396;46.9205555555556;Архангельская область, Котласский муниципальный район, г. Сольвычегодск
Архангельская область;Мезенский муниципальный район;Мезень;65.84;44.2530555555556;Архангельская область, Мезенский муниципальный район, г. Мезень
Архангельская область;;Мирный;62.7644444444444;40.3361111111111;Архангельская область, г. Мирный
Архангельская область;;Новодвинск;64.4136111111111;40.8208333333333;Архангельская область, г. Новодвинск
Архангельская область;Няндомский муниципальный район;Няндома;61.669722222222205;40.2044444444444;Архангельская область, Няндомский муниципальный район, г. Няндома
Архангельская область;Онежский муниципальный район;Онега;63.9069444444444;38.1002777777778;Архангельская область, Онежский муниципальный район, г. Онега
Архангельская область;;Северодвинск;64.5625;39.8180555555556;Архангельская область, г. Северодвинск
Архангельская область;Шенкурский муниципальный район;Шенкурск;62.105555555555604;42.8997222222222;Архангельская область, Шенкурский муниципальный район, г. Шенкурск
Астраханская область;Ахтубинский район;Ахтубинск;48.29222222222221;46.1769444444444;Астраханская область, Ахтубинский район, г. Ахтубинск
Астраханская область;ЗАТО Знаменск;Знаменск;48.5866666666667;45.7369444444444;Астраханская область, ЗАТО Знаменск, г. Знаменск
Астраханская область;Камызякский район;Камызяк;46.1105555555556;48.0733333333333;Астраханская область, Камызякский район, г. Камызяк
Астраханская область;Наримановский район;Нариманов;46.690277777777794;47.8536111111111;Астраханская область, Наримановский район, г. Нариманов
Астраханская область;Харабалинский район;Харабали;47.4094444444444;47.2519444444444;Астраханская область, Харабалинский район, г. Харабали
Байконур;;Байконур;45.616666666666696;63.3166666666667;Байконур, г. Байконур
Белгородская область;Алексеевский район;Алексеевка;50.63;38.6880555555556;Белгородская область, Алексеевский район, г. Алексеевка
Белгородская область;Валуйский район;Валуйки;50.211111111111094;38.1;Белгородская область, Валуйский район, г. Валуйки
Белгородская область;Городской округ Белгород;Белгород;50.5975;36.588888888888896;Белгородская область, Городской округ Белгород, г. Белгород
Белгородская область;Грайворонский район;Грайворон;50.4861111111111;35.666388888888896;Белгородская область, Грайворонский район, г. Грайворон
Белгородская область;Губкинский городской округ;Губкин;51.2836111111111;37.53472222222221;Белгородская область, Губкинский городской округ, г. Губкин
Белгородская область;Корочанский район;Короча;50.8130555555556;37.1897222222222;Белгородская область, Корочанский район, г. Короча
Белгородская область;Красногвардейский район;Бирюч;50.648333333333305;38.4005555555556;Белгородская область, Красногвардейский район, г. Бирюч
Белгородская область;Новооскольский район;Новый Оскол;50.7605555555556;37.864722222222206;Белгородская область, Новооскольский район, г. Новый Оскол
Белгородская область;Старооскольский городской округ;Старый Оскол;51.2980555555556;37.8333333333333;Белгородская область, Старооскольский городской округ, г. Старый Оскол
Белгородская область;Шебекинский район;Шебекино;50.4005555555556;36.8877777777778;Белгородская область, Шебекинский район, г. Шебекино
Белгородская область;Яковлевский район;Строитель;50.7844444444444;36.488611111111105;Белгородская область, Яковлевский район, г. Строитель
Брянская область;Город Брянск;Брянск;53.242777777777796;34.366666666666696;Брянская область, Город Брянск, г. Брянск
Брянская область;Город Клинцы;Клинцы;52.752777777777794;32.2338888888889;Брянская область, Город Клинцы, г. Клинцы
Брянская область;Город Сельцо;Сельцо;53.3738888888889;34.1058333333333;Брянская область, Город Сельцо, г. Сельцо
Брянская область;Город Фокино;Фокино;53.4555555555556;34.4158333333333;Брянская область, Город Фокино, г. Фокино
Брянская область;Дятьковский район;Дятьково;53.59722222222221;34.3397222222222;Брянская область, Дятьковский район, г. Дятьково
Брянская область;Жуковский район;Жуковка;53.53527777777779;33.7277777777778;Брянская область, Жуковский район, г. Жуковка
Брянская область;Злынковский район;Злынка;52.4275;31.736944444444397;Брянская область, Злынковский район, г. Злынка
Брянская область;Карачевский район;Карачев;53.1216666666667;34.9827777777778;Брянская область, Карачевский район, г. Карачев
Брянская область;Мглинский район;Мглин;53.06;32.8466666666667;Брянская область, Мглинский район, г. Мглин
Брянская область;Новозыбковский район;Новозыбков;52.5366666666667;31.9333333333333;Брянская область, Новозыбковский район, г. Новозыбков
Брянская область;Почепский район;Почеп;52.929166666666696;33.4541666666667;Брянская область, Почепский район, г. Почеп
Брянская область;Севский район;Севск;52.156111111111095;34.495;Брянская область, Севский район, г. Севск
Брянская область;Стародубский район;Стародуб;52.5852777777778;32.7602777777778;Брянская область, Стародубский район, г. Стародуб
Брянская область;Суражский район;Сураж;53.014166666666696;32.3941666666667;Брянская область, Суражский район, г. Сураж
Брянская область;Трубчевский район;Трубчевск;52.5791666666667;33.7661111111111;Брянская область, Трубчевский район, г. Трубчевск
Брянская область;Унечский район;Унеча;52.8430555555556;32.6780555555556;Брянская область, Унечский район, г. Унеча
Владимирская область;Александровский;Александров;56.3977777777778;38.7275;Владимирская область, Александровский, г. Александров
Владимирская область;Александровский;Карабаново;56.313333333333304;38.7033333333333;Владимирская область, Александровский, г. Карабаново
Владимирская область;Александровский;Струнино;56.375;38.584166666666704;Владимирская область, Александровский, г. Струнино
Владимирская область;Вязниковский;Вязники;56.2469444444444;42.158888888888896;Владимирская область, Вязниковский, г. Вязники
Владимирская область;Город Владимир;Владимир;56.133333333333304;40.4166666666667;Владимирская область, Город Владимир, г. Владимир
Владимирская область;Город Гусь-Хрустальный;Гусь-Хрустальный;55.6197222222222;40.657777777777795;Владимирская область, Город Гусь-Хрустальный, г. Гусь-Хрустальный
Владимирская область;Город Ковров;Ковров;56.3636111111111;41.3111111111111;Владимирская область, Город Ковров, г. Ковров
Владимирская область;Гороховецкий;Гороховец;56.201666666666696;42.691111111111105;Владимирская область, Гороховецкий, г. Гороховец
Владимирская область;Гусь-Хрустальный;Курлово;55.4519444444444;40.6094444444444;Владимирская область, Гусь-Хрустальный, г. Курлово
Владимирская область;ЗАТО Радужный;Радужный;55.9961111111111;40.33222222222221;Владимирская область, ЗАТО Радужный, г. Радужный
Владимирская область;Камешковский;Камешково;56.3488888888889;40.995555555555605;Владимирская область, Камешковский, г. Камешково
Владимирская область;Киржачский;Киржач;56.1616666666667;38.8719444444444;Владимирская область, Киржачский, г. Киржач
Владимирская область;Кольчугинский;Кольчугино;56.2938888888889;39.3761111111111;Владимирская область, Кольчугинский, г. Кольчугино
Владимирская область;Меленковский;Меленки;55.3386111111111;41.6341666666667;Владимирская область, Меленковский, г. Меленки
Владимирская область;Округ Муром;Муром;55.5791666666667;42.0525;Владимирская область, Округ Муром, г. Муром
Владимирская область;Петушинский;Костерево;55.9336111111111;39.6247222222222;Владимирская область, Петушинский, г. Костерево
Владимирская область;Петушинский;Петушки;55.930833333333304;39.46;Владимирская область, Петушинский, г. Петушки
Владимирская область;Петушинский;Покров;55.9166666666667;39.1733333333333;Владимирская область, Петушинский, г. Покров
Владимирская область;Собинский;Лакинск;56.0180555555556;39.956388888888895;Владимирская область, Собинский, г. Лакинск
Владимирская область;Собинский;Собинка;55.993888888888904;40.0180555555556;Владимирская область, Собинский, г. Собинка
Владимирская область;Судогодский;Судогда;55.95;40.8563888888889;Владимирская область, Судогодский, г. Судогда
Владимирская область;Суздальский;Суздаль;56.419722222222205;40.449444444444396;Владимирская область, Суздальский, г. Суздаль
Владимирская область;;Юрьев-Польский;56.499166666666696;39.6808333333333;Владимирская область, г. Юрьев-Польский
Волгоградская область;Город Волгоград;Волгоград;48.7105555555556;44.5166666666667;Волгоградская область, Город Волгоград, г. Волгоград
Волгоградская область;Город Волжский;Волжский;48.797777777777796;44.7461111111111;Волгоградская область, Город Волжский, г. Волжский
Волгоградская область;Город Камышин;Камышин;50.0836111111111;45.4072222222222;Волгоградская область, Город Камышин, г. Камышин
Волгоградская область;Город Михайловка;Михайловка;50.070833333333304;43.24;Волгоградская область, Город Михайловка, г. Михайловка
Волгоградская область;Город Урюпинск;Урюпинск;50.7944444444444;41.995833333333294;Волгоградская область, Город Урюпинск, г. Урюпинск
Волгоградская область;Город Фролово;Фролово;49.7688888888889;43.648333333333305;Волгоградская область, Город Фролово, г. Фролово
Волгоградская область;Дубовский район;Дубовка;49.0555555555556;44.8269444444444;Волгоградская область, Дубовский район, г. Дубовка
Волгоградская область;Жирновский район;Жирновск;50.9786111111111;44.7788888888889;Волгоградская область, Жирновский район, г. Жирновск
Волгоградская область;Калачёвский район;Калач-на-Дону;48.6927777777778;43.5241666666667;Волгоградская область, Калачёвский район, г. Калач-на-Дону
Волгоградская область;Камышинский район;Петров Вал;50.1380555555556;45.2091666666667;Волгоградская область, Камышинский район, г. Петров Вал
Волгоградская область;Котельниковский район;Котельниково;47.631666666666696;43.1425;Волгоградская область, Котельниковский район, г. Котельниково
Волгоградская область;Котовский район;Котово;50.3219444444444;44.8013888888889;Волгоградская область, Котовский район, г. Котово
Волгоградская область;Ленинский район;Ленинск;48.693611111111096;45.1991666666667;Волгоградская область, Ленинский район, г. Ленинск
Волгоградская область;Николаевский район;Николаевск;50.0258333333333;45.4591666666667;Волгоградская область, Николаевский район, г. Николаевск
Волгоградская область;Новоаннинский район;Новоаннинский;50.529722222222205;42.6666666666667;Волгоградская область, Новоаннинский район, г. Новоаннинский
Волгоградская область;Палласовский район;Палласовка;50.050277777777794;46.8802777777778;Волгоградская область, Палласовский район, г. Палласовка
Волгоградская область;Серафимовичский район;Серафимович;49.5841666666667;42.7338888888889;Волгоградская область, Серафимовичский район, г. Серафимович
Волгоградская область;Среднеахтубинский район;Краснослободск;48.7066666666667;44.5630555555556;Волгоградская область, Среднеахтубинский район, г. Краснослободск
Волгоградская область;Суровикинский район;Суровикино;48.607222222222205;42.8502777777778;Волгоградская область, Суровикинский район, г. Суровикино
Вологодская область;Бабаевский район;Бабаево;59.389166666666696;35.9377777777778;Вологодская область, Бабаевский район, г. Бабаево
Вологодская область;Белозерский район;Белозерск;60.0308333333333;37.7888888888889;Вологодская область, Белозерский район, г. Белозерск
Вологодская область;Великоустюгский район;Великий Устюг;60.760277777777794;46.3055555555556;Вологодская область, Великоустюгский район, г. Великий Устюг
Вологодская область;Великоустюгский район;Красавино;60.961388888888905;46.4813888888889;Вологодская область, Великоустюгский район, г. Красавино
Вологодская область;Вытегорский район;Вытегра;61.0063888888889;36.449444444444396;Вологодская область, Вытегорский район, г. Вытегра
Вологодская область;Город Вологда;Вологда;59.218888888888905;39.893333333333295;Вологодская область, Город Вологда, г. Вологда
Вологодская область;Город Череповец;Череповец;59.1275;37.9069444444444;Вологодская область, Город Череповец, г. Череповец
Вологодская область;Грязовецкий район;Грязовец;58.875833333333304;40.2486111111111;Вологодская область, Грязовецкий район, г. Грязовец
Вологодская область;Кирилловский район;Кириллов;59.859166666666695;38.375;Вологодская область, Кирилловский район, г. Кириллов
Вологодская область;Никольский район;Никольск;59.5302777777778;45.4586111111111;Вологодская область, Никольский район, г. Никольск
Вологодская область;Сокольский район;Кадников;59.5038888888889;40.3441666666667;Вологодская область, Сокольский район, г. Кадников
Вологодская область;Сокольский район;Сокол;59.460833333333305;40.1;Вологодская область, Сокольский район, г. Сокол
Вологодская область;Тотемский район;Тотьма;59.9736111111111;42.7588888888889;Вологодская область, Тотемский район, г. Тотьма
Вологодская область;Устюженский район;Устюжна;58.8383333333333;36.4425;Вологодская область, Устюженский район, г. Устюжна
Вологодская область;Харовский район;Харовск;59.9508333333333;40.206388888888895;Вологодская область, Харовский район, г. Харовск
Воронежская область;Бобровский район;Бобров;51.09027777777779;40.0319444444444;Воронежская область, Бобровский район, г. Бобров
Воронежская область;Богучарский район;Богучар;49.9352777777778;40.559166666666705;Воронежская область, Богучарский район, г. Богучар
Воронежская область;Борисоглебский район;Борисоглебск;51.367777777777796;42.075;Воронежская область, Борисоглебский район, г. Борисоглебск
Воронежская область;Бутурлиновский район;Бутурлиновка;50.8352777777778;40.584722222222204;Воронежская область, Бутурлиновский район, г. Бутурлиновка
Воронежская область;Калачеевский район;Калач;50.4241666666667;41.0161111111111;Воронежская область, Калачеевский район, г. Калач
Воронежская область;Лискинский район;Лиски;50.9869444444444;39.4977777777778;Воронежская область, Лискинский район, г. Лиски
Воронежская область;Новохопёрский район;Новохоперск;51.095277777777795;41.6175;Воронежская область, Новохопёрский район, г. Новохоперск
Воронежская область;Острогожский район;Острогожск;50.860277777777796;39.08222222222221;Воронежская область, Острогожский район, г. Острогожск
Воронежская область;Павловский район;Павловск;50.453333333333305;40.136944444444396;Воронежская область, Павловский район, г. Павловск
Воронежская область;Поворинский район;Поворино;51.1952777777778;42.247222222222206;Воронежская область, Поворинский район, г. Поворино
Воронежская область;Россошанский район;Россошь;50.1927777777778;39.5763888888889;Воронежская область, Россошанский район, г. Россошь
Воронежская область;Семилукский район;Семилуки;51.6872222222222;39.02722222222221;Воронежская область, Семилукский район, г. Семилуки
Воронежская область;Эртильский район;Эртиль;51.835833333333305;40.7991666666667;Воронежская область, Эртильский район, г. Эртиль
Воронежская область;город Воронеж;Воронеж;51.6616666666667;39.2002777777778;Воронежская область, город Воронеж, г. Воронеж
Воронежская область;город Нововоронеж;Нововоронеж;51.3091666666667;39.2163888888889;Воронежская область, город Нововоронеж, г. Нововоронеж
Еврейская автономная область;;Биробиджан;48.794722222222205;132.921666666667;Еврейская автономная область, г. Биробиджан
Еврейская автономная область;Облученский район;Облучье;49.0188888888889;131.05388888888902;Еврейская автономная область, Облученский район, г. Облучье
Забайкальский край;Балейский район;Балей;51.58222222222221;116.638055555556;Забайкальский край, Балейский район, г. Балей
Забайкальский край;Борзинский район;Борзя;50.3875;116.523611111111;Забайкальский край, Борзинский район, г. Борзя
Забайкальский край;Краснокаменск и Краснокаменский район;Краснокаменск;50.0930555555556;118.0325;Забайкальский край, Краснокаменск и Краснокаменский район, г. Краснокаменск
Забайкальский край;Могочинский район;Могоча;53.7361111111111;119.76611111111099;Забайкальский край, Могочинский район, г. Могоча
Забайкальский край;;Петровск-Забайкальский;51.275;108.846666666667;Забайкальский край, г. Петровск-Забайкальский
Забайкальский край;Сретенский район;Сретенск;52.2463888888889;117.71194444444401;Забайкальский край, Сретенский район, г. Сретенск
Забайкальский край;Хилокский район;Хилок;51.3633333333333;110.458888888889;Забайкальский край, Хилокский район, г. Хилок
Забайкальский край;;Чита;52.0338888888889;113.49944444444401;Забайкальский край, г. Чита
Забайкальский край;Шилкинский район;Шилка;51.8494444444444;116.03361111111099;Забайкальский край, Шилкинский район, г. Шилка
Ивановская область;Вичугский район;Вичуга;57.2138888888889;41.91777777777779;Ивановская область, Вичугский район, г. Вичуга
Ивановская область;Гаврилово-Посадский район;Гаврилов Посад;56.5583333333333;40.12;Ивановская область, Гаврилово-Посадский район, г. Гаврилов Посад
Ивановская область;Город Иваново;Иваново;57.0002777777778;40.9738888888889;Ивановская область, Город Иваново, г. Иваново
Ивановская область;Заволжский район;Заволжск;57.491666666666696;42.1375;Ивановская область, Заволжский район, г. Заволжск
Ивановская область;Кинешемский район;Кинешма;57.4425;42.1688888888889;Ивановская область, Кинешемский район, г. Кинешма
Ивановская область;Кинешемский район;Наволоки;57.468611111111095;41.964444444444396;Ивановская область, Кинешемский район, г. Наволоки
Ивановская область;Комсомольский район;Комсомольск;57.0275;40.3775;Ивановская область, Комсомольский район, г. Комсомольск
Ивановская область;Приволжский район;Плес;57.4605555555556;41.512222222222206;Ивановская область, Приволжский район, г. Плес
Ивановская область;Приволжский район;Приволжск;57.3805555555556;41.2808333333333;Ивановская область, Приволжский район, г. Приволжск
Ивановская область;Пучежский район;Пучеж;56.982222222222205;43.1683333333333;Ивановская область, Пучежский район, г. Пучеж
Ивановская область;Родниковский район;Родники;57.107222222222205;41.7333333333333;Ивановская область, Родниковский район, г. Родники
Ивановская область;Тейковский район;Тейково;56.85;40.5330555555556;Ивановская область, Тейковский район, г. Тейково
Ивановская область;Фурмановский район;Фурманов;57.2525;41.106111111111105;Ивановская область, Фурмановский район, г. Фурманов
Ивановская область;Шуйский район;Шуя;56.8519444444444;41.3855555555556;Ивановская область, Шуйский район, г. Шуя
Ивановская область;Южский район;Южа;56.5836111111111;42.011944444444396;Ивановская область, Южский район, г. Южа
Ивановская область;Юрьевецкий район;Юрьевец;57.3177777777778;43.1111111111111;Ивановская область, Юрьевецкий район, г. Юрьевец
Иркутская область;Ангарский район;Ангарск;52.5441666666667;103.888055555556;Иркутская область, Ангарский район, г. Ангарск
Иркутская область;Бодайбинский район;Бодайбо;57.8519444444444;114.198888888889;Иркутская область, Бодайбинский район, г. Бодайбо
Иркутская область;;Братск;56.1513888888889;101.634166666667;Иркутская область, г. Братск
Иркутская область;Братский район;Вихоревка;56.1208333333333;101.170277777778;Иркутская область, Братский район, г. Вихоревка
Иркутская область;;Зима;53.91027777777779;102.043333333333;Иркутская область, г. Зима
Иркутская область;;Иркутск;52.2863888888889;104.28055555555599;Иркутская область, г. Иркутск
Иркутская область;Киренский район;Киренск;57.7758333333333;108.11083333333299;Иркутская область, Киренский район, г. Киренск
Иркутская область;Нижнеилимский район;Железногорск-Илимский;56.584722222222204;104.114166666667;Иркутская область, Нижнеилимский район, г. Железногорск-Илимский
Иркутская область;Нижнеудинский район;Алзамай;55.555;98.6641666666667;Иркутская область, Нижнеудинский район, г. Алзамай
Иркутская область;Нижнеудинский район;Нижнеудинск;54.9011111111111;99.02638888888892;Иркутская область, Нижнеудинский район, г. Нижнеудинск
Иркутская область;;Саянск;54.110833333333304;102.180277777778;Иркутская область, г. Саянск
Иркутская область;;Свирск;53.0841666666667;103.336388888889;Иркутская область, г. Свирск
Иркутская область;Слюдянский район;Байкальск;51.5230555555556;104.148611111111;Иркутская область, Слюдянский район, г. Байкальск
Иркутская область;Слюдянский район;Слюдянка;51.656388888888905;103.71861111111099;Иркутская область, Слюдянский район, г. Слюдянка
Иркутская область;Тайшетский район;Бирюсинск;55.960833333333305;97.82055555555559;Иркутская область, Тайшетский район, г. Бирюсинск
Иркутская область;Тайшетский район;Тайшет;55.9405555555556;98.00305555555559;Иркутская область, Тайшетский район, г. Тайшет
Иркутская область;;Тулун;54.5572222222222;100.57805555555599;Иркутская область, г. Тулун
Иркутская область;;Усолье-Сибирское;52.756666666666696;103.63888888888901;Иркутская область, г. Усолье-Сибирское
Иркутская область;;Усть-Илимск;57.9430555555556;102.741388888889;Иркутская область, г. Усть-Илимск
Иркутская область;Усть-Кутский район;Усть-Кут;56.79277777777779;105.775555555556;Иркутская область, Усть-Кутский район, г. Усть-Кут
Иркутская область;;Черемхово;53.136944444444396;103.09;Иркутская область, г. Черемхово
Иркутская область;Шелеховский район;Шелехов;52.2102777777778;104.0975;Иркутская область, Шелеховский район, г. Шелехов
Кабардино-Балкарская республика;;Баксан;43.6819444444444;43.5344444444444;Кабардино-Балкарская республика, г. Баксан
Кабардино-Балкарская республика;Майский район;Майский;43.6283333333333;44.0516666666667;Кабардино-Балкарская республика, Майский район, г. Майский
Кабардино-Балкарская республика;;Нальчик;43.485277777777796;43.6069444444444;Кабардино-Балкарская республика, г. Нальчик
Кабардино-Балкарская республика;;Прохладный;43.758888888888904;44.010277777777794;Кабардино-Балкарская республика, г. Прохладный
Кабардино-Балкарская республика;Терский район;Терек;43.483888888888906;44.1402777777778;Кабардино-Балкарская республика, Терский район, г. Терек
Кабардино-Балкарская республика;Урванский район;Нарткала;43.5566666666667;43.8619444444444;Кабардино-Балкарская республика, Урванский район, г. Нарткала
Кабардино-Балкарская республика;Чегемский район;Чегем;43.567222222222206;43.5866666666667;Кабардино-Балкарская республика, Чегемский район, г. Чегем
Кабардино-Балкарская республика;Эльбрусский район;Тырныауз;43.3980555555556;42.9213888888889;Кабардино-Балкарская республика, Эльбрусский район, г. Тырныауз
Калининградская область;Багратионовский район;Багратионовск;54.3877777777778;20.6369444444444;Калининградская область, Багратионовский район, г. Багратионовск
Калининградская область;Балтийский район;Балтийск;54.6441666666667;19.8922222222222;Калининградская область, Балтийский район, г. Балтийск
Калининградская область;Балтийский район;Приморск;54.7291666666667;20.0041666666667;Калининградская область, Балтийский район, г. Приморск
Калининградская область;Город Гвардейский;Гвардейск;54.6544444444444;21.0702777777778;Калининградская область, Город Гвардейский, г. Гвардейск
Калининградская область;Город Гурьевский;Гурьевск;54.7705555555556;20.603888888888896;Калининградская область, Город Гурьевский, г. Гурьевск
Калининградская область;Город Гусевский;Гусев;54.5919444444444;22.201111111111103;Калининградская область, Город Гусевский, г. Гусев
Калининградская область;Город Калининградский;Калининград;54.7;20.45;Калининградская область, Город Калининградский, г. Калининград
Калининградская область;Город Ладушкинский;Ладушкин;54.569166666666696;20.169166666666698;Калининградская область, Город Ладушкинский, г. Ладушкин
Калининградская область;Город Мамоновский;Мамоново;54.46472222222221;19.9455555555556;Калининградская область, Город Мамоновский, г. Мамоново
Калининградская область;Город Озёрский;Озерск;54.4;22.016666666666698;Калининградская область, Город Озёрский, г. Озерск
Калининградская область;Город Пионерский;Пионерский;54.951666666666696;20.2277777777778;Калининградская область, Город Пионерский, г. Пионерский
Калининградская область;Город Светловский;Светлый;54.6775;20.135833333333302;Калининградская область, Город Светловский, г. Светлый
Калининградская область;Город Советский;Советск;55.0811111111111;21.888611111111103;Калининградская область, Город Советский, г. Советск
Калининградская область;Зеленоградский район;Зеленоградск;54.96;20.4752777777778;Калининградская область, Зеленоградский район, г. Зеленоградск
Калининградская область;Краснознаменский район;Краснознаменск;54.942222222222206;22.490555555555602;Калининградская область, Краснознаменский район, г. Краснознаменск
Калининградская область;Неманский район;Неман;55.0316666666667;22.0325;Калининградская область, Неманский район, г. Неман
Калининградская область;Нестеровский район;Нестеров;54.6313888888889;22.571388888888897;Калининградская область, Нестеровский район, г. Нестеров
Калининградская область;Полесский район;Полесск;54.862777777777794;21.11;Калининградская область, Полесский район, г. Полесск
Калининградская область;Правдинский район;Правдинск;54.446388888888904;21.0188888888889;Калининградская область, Правдинский район, г. Правдинск
Калининградская область;Светлогорский район;Светлогорск;54.9438888888889;20.1513888888889;Калининградская область, Светлогорский район, г. Светлогорск
Калининградская область;Славский район;Славск;55.0438888888889;21.68;Калининградская область, Славский район, г. Славск
Калининградская область;Черняховский район;Черняховск;54.6308333333333;21.8194444444444;Калининградская область, Черняховский район, г. Черняховск
Калужская область;Боровский;Балабаново;55.1775;36.6566666666667;Калужская область, Боровский, г. Балабаново
Калужская область;Боровский;Боровск;55.2075;36.4836111111111;Калужская область, Боровский, г. Боровск
Калужская область;Боровский;Ермолино;55.1972222222222;36.595277777777795;Калужская область, Боровский, г. Ермолино
Калужская область;Дзержинский;Кондрово;54.8075;35.926666666666705;Калужская область, Дзержинский, г. Кондрово
Калужская область;Жиздринский;Жиздра;53.7522222222222;34.738611111111105;Калужская область, Жиздринский, г. Жиздра
Калужская область;Жуковский;Белоусово;55.089444444444396;36.657777777777795;Калужская область, Жуковский, г. Белоусово
Калужская область;Жуковский;Жуков;55.0316666666667;36.746388888888895;Калужская область, Жуковский, г. Жуков
Калужская область;Жуковский;Кременки;54.897222222222204;37.1263888888889;Калужская область, Жуковский, г. Кременки
Калужская область;Кировский;Киров;54.0791666666667;34.3077777777778;Калужская область, Кировский, г. Киров
Калужская область;Козельский;Козельск;54.03472222222221;35.7822222222222;Калужская область, Козельский, г. Козельск
Калужская область;Козельский;Сосенский;54.0566666666667;35.9622222222222;Калужская область, Козельский, г. Сосенский
Калужская область;Людиновский;Людиново;53.87;34.4386111111111;Калужская область, Людиновский, г. Людиново
Калужская область;Малоярославецкий;Малоярославец;55.011944444444396;36.4625;Калужская область, Малоярославецкий, г. Малоярославец
Калужская область;Медынский;Медынь;54.968888888888905;35.8577777777778;Калужская область, Медынский, г. Медынь
Калужская область;Мещовский;Мещовск;54.319166666666696;35.2816666666667;Калужская область, Мещовский, г. Мещовск
Калужская область;Мосальский;Мосальск;54.4894444444444;34.9777777777778;Калужская область, Мосальский, г. Мосальск
Калужская область;Спас-Деменский;Спас-Деменск;54.40972222222221;34.018888888888895;Калужская область, Спас-Деменский, г. Спас-Деменск
Калужская область;Сухиничский;Сухиничи;54.101666666666695;35.339444444444396;Калужская область, Сухиничский, г. Сухиничи
Калужская область;Тарусский;Таруса;54.7236111111111;37.16722222222221;Калужская область, Тарусский, г. Таруса
Калужская область;Юхновский;Юхнов;54.7447222222222;35.2425;Калужская область, Юхновский, г. Юхнов
Калужская область;город Калуга;Калуга;54.5358333333333;36.2483333333333;Калужская область, город Калуга, г. Калуга
Калужская область;город Обнинск;Обнинск;55.1119444444444;36.5866666666667;Калужская область, город Обнинск, г. Обнинск
Камчатский край;Вилючинский городской округ;Вилючинск;52.9069444444444;158.418333333333;Камчатский край, Вилючинский городской округ, г. Вилючинск
Камчатский край;Елизовский район;Елизово;53.183055555555605;158.388333333333;Камчатский край, Елизовский район, г. Елизово
Камчатский край;Петропавловск-Камчатский городской округ;Петропавловск-Камчатский;53.0369444444444;158.655833333333;Камчатский край, Петропавловск-Камчатский городской округ, г. Петропавловск-Камчатский
Карачаево-Черкесская республика;;Карачаевск;43.7730555555556;41.9144444444444;Карачаево-Черкесская республика, г. Карачаевск
Карачаево-Черкесская республика;Карачаевск;Теберда;43.4438888888889;41.7413888888889;Карачаево-Черкесская республика, Карачаевск, г. Теберда
Карачаево-Черкесская республика;Усть-Джегутинский район;Усть-Джегута;44.0838888888889;41.9711111111111;Карачаево-Черкесская республика, Усть-Джегутинский район, г. Усть-Джегута
Карачаево-Черкесская республика;;Черкесск;44.226666666666695;42.0466666666667;Карачаево-Черкесская республика, г. Черкесск
Кемеровская область;Анжеро-Судженский;Анжеро-Судженск;56.0830555555556;86.0183333333333;Кемеровская область, Анжеро-Судженский, г. Анжеро-Судженск
Кемеровская область;Беловский;Белово;54.4222222222222;86.30361111111108;Кемеровская область, Беловский, г. Белово
Кемеровская область;Берёзовский;Березовский;55.6666666666667;86.25;Кемеровская область, Берёзовский, г. Березовский
Кемеровская область;Гурьевский район;Гурьевск;54.2858333333333;85.9475;Кемеровская область, Гурьевский район, г. Гурьевск
Кемеровская область;Гурьевский район;Салаир;54.235;85.80305555555559;Кемеровская область, Гурьевский район, г. Салаир
Кемеровская область;Калтанский;Калтан;53.5211111111111;87.27722222222219;Кемеровская область, Калтанский, г. Калтан
Кемеровская область;Кемеровский;Кемерово;55.3541666666667;86.08972222222219;Кемеровская область, Кемеровский, г. Кемерово
Кемеровская область;Киселёвский;Киселевск;54.006111111111096;86.6366666666667;Кемеровская область, Киселёвский, г. Киселевск
Кемеровская область;;Ленинск-Кузнецкий;54.663611111111095;86.1622222222222;Кемеровская область, г. Ленинск-Кузнецкий
Кемеровская область;Мариинский район;Мариинск;56.2091666666667;87.735;Кемеровская область, Мариинский район, г. Мариинск
Кемеровская область;Междуреченский;Междуреченск;53.686666666666696;88.0702777777778;Кемеровская область, Междуреченский, г. Междуреченск
Кемеровская область;Мысковский;Мыски;53.7125;87.80555555555559;Кемеровская область, Мысковский, г. Мыски
Кемеровская область;Новокузнецкий;Новокузнецк;53.7575;87.13611111111109;Кемеровская область, Новокузнецкий, г. Новокузнецк
Кемеровская область;Осинниковский;Осинники;53.5986111111111;87.33694444444441;Кемеровская область, Осинниковский, г. Осинники
Кемеровская область;Полысаевский;Полысаево;54.605555555555604;86.2808333333333;Кемеровская область, Полысаевский, г. Полысаево
Кемеровская область;Прокопьевский;Прокопьевск;53.8844444444444;86.75;Кемеровская область, Прокопьевский, г. Прокопьевск
Кемеровская область;Тайгинский;Тайга;56.065;85.6311111111111;Кемеровская область, Тайгинский, г. Тайга
Кемеровская область;Таштагольский район;Таштагол;52.7594444444444;87.84777777777781;Кемеровская область, Таштагольский район, г. Таштагол
Кемеровская область;Топкинский район;Топки;55.2763888888889;85.61527777777779;Кемеровская область, Топкинский район, г. Топки
Кемеровская область;Юргинский;Юрга;55.7136111111111;84.9338888888889;Кемеровская область, Юргинский, г. Юрга
Кировская область;Белохолуницкий район;Белая Холуница;58.843611111111095;50.852777777777796;Кировская область, Белохолуницкий район, г. Белая Холуница
Кировская область;Верхнекамский район;Кирс;59.34;52.241388888888906;Кировская область, Верхнекамский район, г. Кирс
Кировская область;Вятскополянский район;Вятские Поляны;56.2286111111111;51.0613888888889;Кировская область, Вятскополянский район, г. Вятские Поляны
Кировская область;Вятскополянский район;Сосновка;56.2533333333333;51.2833333333333;Кировская область, Вятскополянский район, г. Сосновка
Кировская область;Зуевский район;Зуевка;58.4033333333333;51.133333333333304;Кировская область, Зуевский район, г. Зуевка
Кировская область;;Киров;58.6036111111111;49.663888888888906;Кировская область, г. Киров
Кировская область;Кирово-Чепецкий район;Кирово-Чепецк;58.5561111111111;50.0316666666667;Кировская область, Кирово-Чепецкий район, г. Кирово-Чепецк
Кировская область;Котельничский район;Котельнич;58.3033333333333;48.3475;Кировская область, Котельничский район, г. Котельнич
Кировская область;Лузский район;Луза;60.6291666666667;47.2611111111111;Кировская область, Лузский район, г. Луза
Кировская область;Малмыжский район;Малмыж;56.5244444444444;50.6783333333333;Кировская область, Малмыжский район, г. Малмыж
Кировская область;Мурашинский район;Мураши;59.3955555555556;48.9638888888889;Кировская область, Мурашинский район, г. Мураши
Кировская область;Нолинский район;Нолинск;57.559722222222206;49.9358333333333;Кировская область, Нолинский район, г. Нолинск
Кировская область;Омутнинский район;Омутнинск;58.669722222222205;52.1894444444444;Кировская область, Омутнинский район, г. Омутнинск
Кировская область;Орловский район;Орлов;58.539166666666695;48.892777777777795;Кировская область, Орловский район, г. Орлов
Кировская область;Слободской район;Слободской;58.7319444444444;50.1836111111111;Кировская область, Слободской район, г. Слободской
Кировская область;Советский район;Советск;57.5875;48.9594444444444;Кировская область, Советский район, г. Советск
Кировская область;Уржумский район;Уржум;57.1097222222222;50.0058333333333;Кировская область, Уржумский район, г. Уржум
Кировская область;Яранский район;Яранск;57.304166666666696;47.848055555555604;Кировская область, Яранский район, г. Яранск
Костромская область;Буйский район;Буй;58.4816666666667;41.5330555555556;Костромская область, Буйский район, г. Буй
Костромская область;Галичский район;Галич;58.381111111111096;42.34722222222221;Костромская область, Галичский район, г. Галич
Костромская область;Город Волгореченск;Волгореченск;57.4394444444444;41.1575;Костромская область, Город Волгореченск, г. Волгореченск
Костромская область;Город Нерехта и Нерехтский район;Нерехта;57.4544444444444;40.5725;Костромская область, Город Нерехта и Нерехтский район, г. Нерехта
Костромская область;Город Нея и Нейский район;Нея;58.2944444444444;43.8780555555556;Костромская область, Город Нея и Нейский район, г. Нея
Костромская область;Кологривский район;Кологрив;58.8269444444444;44.3188888888889;Костромская область, Кологривский район, г. Кологрив
Костромская область;Костромской район;Кострома;57.767777777777795;40.9263888888889;Костромская область, Костромской район, г. Кострома
Костромская область;Макарьевский район;Макарьев;57.88;43.807777777777794;Костромская область, Макарьевский район, г. Макарьев
Костромская область;Мантуровский район;Мантурово;58.328611111111094;44.757222222222204;Костромская область, Мантуровский район, г. Мантурово
Костромская область;Солигаличский район;Солигалич;59.078611111111094;42.2877777777778;Костромская область, Солигаличский район, г. Солигалич
Костромская область;Чухломский район;Чухлома;58.7533333333333;42.6886111111111;Костромская область, Чухломский район, г. Чухлома
Костромская область;Шарьинский район;Шарья;58.3697222222222;45.5180555555556;Костромская область, Шарьинский район, г. Шарья
Краснодарский край;Абинский район;Абинск;44.8680555555556;38.161666666666704;Краснодарский край, Абинский район, г. Абинск
Краснодарский край;Апшеронский район;Апшеронск;44.4583333333333;39.73;Краснодарский край, Апшеронский район, г. Апшеронск
Краснодарский край;Апшеронский район;Хадыженск;44.412222222222205;39.5319444444444;Краснодарский край, Апшеронский район, г. Хадыженск
Краснодарский край;Белореченский район;Белореченск;44.7611111111111;39.871111111111105;Краснодарский край, Белореченский район, г. Белореченск
Краснодарский край;Город Армавир;Армавир;45.0011111111111;41.1325;Краснодарский край, Город Армавир, г. Армавир
Краснодарский край;Город Горячий Ключ;Горячий Ключ;44.6344444444444;39.1355555555556;Краснодарский край, Город Горячий Ключ, г. Горячий Ключ
Краснодарский край;Город Краснодар;Краснодар;45.040277777777796;38.9761111111111;Краснодарский край, Город Краснодар, г. Краснодар
Краснодарский край;Город-герой Новороссийск;Новороссийск;44.7236111111111;37.7686111111111;Краснодарский край, Город-герой Новороссийск, г. Новороссийск
Краснодарский край;Город-курорт Анапа;Анапа;44.895;37.316388888888895;Краснодарский край, Город-курорт Анапа, г. Анапа
Краснодарский край;Город-курорт Геленджик;Геленджик;44.5630555555556;38.0791666666667;Краснодарский край, Город-курорт Геленджик, г. Геленджик
Краснодарский край;Город-курорт Сочи;Сочи;43.5855555555556;39.723055555555604;Краснодарский край, Город-курорт Сочи, г. Сочи
Краснодарский край;Гулькевичский район;Гулькевичи;45.3583333333333;40.6963888888889;Краснодарский край, Гулькевичский район, г. Гулькевичи
Краснодарский край;Ейский район;Ейск;46.7105555555556;38.27777777777779;Краснодарский край, Ейский район, г. Ейск
Краснодарский край;Кавказский район;Кропоткин;45.434722222222206;40.5761111111111;Краснодарский край, Кавказский район, г. Кропоткин
Краснодарский край;Кореновский район;Кореновск;45.4641666666667;39.4588888888889;Краснодарский край, Кореновский район, г. Кореновск
Краснодарский край;Крымский район;Крымск;44.9344444444444;37.9855555555556;Краснодарский край, Крымский район, г. Крымск
Краснодарский край;Курганинский район;Курганинск;44.8877777777778;40.5913888888889;Краснодарский край, Курганинский район, г. Курганинск
Краснодарский край;Лабинский район;Лабинск;44.635277777777794;40.7244444444444;Краснодарский край, Лабинский район, г. Лабинск
Краснодарский край;Новокубанский район;Новокубанск;45.1038888888889;41.0475;Краснодарский край, Новокубанский район, г. Новокубанск
Краснодарский край;Приморско-Ахтарский район;Приморско-Ахтарск;46.0516666666667;38.1705555555556;Краснодарский край, Приморско-Ахтарский район, г. Приморско-Ахтарск
Краснодарский край;Славянский район;Славянск-на-Кубани;45.2605555555556;38.1261111111111;Краснодарский край, Славянский район, г. Славянск-на-Кубани
Краснодарский край;Темрюкский район;Темрюк;45.27;37.385277777777794;Краснодарский край, Темрюкский район, г. Темрюк
Краснодарский край;Тимашёвский район;Тимашевск;45.6186111111111;38.9455555555556;Краснодарский край, Тимашёвский район, г. Тимашевск
Краснодарский край;Тихорецкий район;Тихорецк;45.85472222222221;40.1258333333333;Краснодарский край, Тихорецкий район, г. Тихорецк
Краснодарский край;Туапсинский район;Туапсе;44.0986111111111;39.0719444444444;Краснодарский край, Туапсинский район, г. Туапсе
Краснодарский край;Усть-Лабинский район;Усть-Лабинск;45.2166666666667;39.6944444444444;Краснодарский край, Усть-Лабинский район, г. Усть-Лабинск
Красноярский край;;Ачинск;56.269444444444396;90.4952777777778;Красноярский край, г. Ачинск
Красноярский край;;Боготол;56.21;89.53;Красноярский край, г. Боготол
Красноярский край;;Бородино;55.9055555555556;94.90222222222219;Красноярский край, г. Бородино
Красноярский край;;Дивногорск;55.95777777777779;92.38;Красноярский край, г. Дивногорск
Красноярский край;;Енисейск;58.4486111111111;92.1652777777778;Красноярский край, г. Енисейск
Красноярский край;ЗАТО город Железногорск;Железногорск;56.25;93.5333333333333;Красноярский край, ЗАТО город Железногорск, г. Железногорск
Красноярский край;ЗАТО город Зеленогорск;Зеленогорск;56.116666666666696;94.5833333333333;Красноярский край, ЗАТО город Зеленогорск, г. Зеленогорск
Красноярский край;Иланский район;Иланский;56.2375;96.0672222222222;Красноярский край, Иланский район, г. Иланский
Красноярский край;;Канск;56.205;95.705;Красноярский край, г. Канск
Красноярский край;Кежемский район;Кодинск;58.6033333333333;99.1797222222222;Красноярский край, Кежемский район, г. Кодинск
Красноярский край;;Красноярск;56.0105555555556;92.8525;Красноярский край, г. Красноярск
Красноярский край;Курагинский район;Артемовск;54.345277777777795;93.43611111111109;Красноярский край, Курагинский район, г. Артемовск
Красноярский край;;Лесосибирск;58.2216666666667;92.50361111111108;Красноярский край, г. Лесосибирск
Красноярский край;;Минусинск;53.7105555555556;91.68722222222219;Красноярский край, г. Минусинск
Красноярский край;;Назарово;56.0125;90.4177777777778;Красноярский край, г. Назарово
Красноярский край;;Норильск;69.3491666666667;88.20111111111109;Красноярский край, г. Норильск
Красноярский край;Рыбинский район;Заозерный;55.9602777777778;94.70944444444442;Красноярский край, Рыбинский район, г. Заозерный
Красноярский край;;Сосновоборск;56.120277777777794;93.33555555555559;Красноярский край, г. Сосновоборск
Красноярский край;Таймырский Долгано-Ненецкий район;Дудинка;69.4055555555556;86.1777777777778;Красноярский край, Таймырский Долгано-Ненецкий район, г. Дудинка
Красноярский край;Туруханский район;Игарка;67.4666666666667;86.58138888888891;Красноярский край, Туруханский район, г. Игарка
Красноярский край;Ужурский район;Ужур;55.3141666666667;89.8333333333333;Красноярский край, Ужурский район, г. Ужур
Красноярский край;Уярский район;Уяр;55.8130555555556;94.3283333333333;Красноярский край, Уярский район, г. Уяр
Красноярский край;;Шарыпово;55.539166666666695;89.1802777777778;Красноярский край, г. Шарыпово
Курганская область;Далматовский район;Далматово;56.261944444444396;62.938888888888904;Курганская область, Далматовский район, г. Далматово
Курганская область;Катайский район;Катайск;56.2908333333333;62.58;Курганская область, Катайский район, г. Катайск
Курганская область;;Курган;55.4544444444444;65.3219444444444;Курганская область, г. Курган
Курганская область;Куртамышский район;Куртамыш;54.9125;64.43361111111109;Курганская область, Куртамышский район, г. Куртамыш
Курганская область;Макушинский район;Макушино;55.205;67.2486111111111;Курганская область, Макушинский район, г. Макушино
Курганская область;Петуховский район;Петухово;55.065;67.8875;Курганская область, Петуховский район, г. Петухово
Курганская область;;Шадринск;56.0869444444444;63.629722222222206;Курганская область, г. Шадринск
Курганская область;Шумихинский район;Шумиха;55.2280555555556;63.290277777777796;Курганская область, Шумихинский район, г. Шумиха
Курганская область;Щучанский район;Щучье;55.2088888888889;62.7477777777778;Курганская область, Щучанский район, г. Щучье
Курская область;Город Железногорск;Железногорск;52.3380555555556;35.3516666666667;Курская область, Город Железногорск, г. Железногорск
Курская область;Город Курск;Курск;51.73027777777779;36.1927777777778;Курская область, Город Курск, г. Курск
Курская область;Город Курчатов;Курчатов;51.660555555555604;35.6572222222222;Курская область, Город Курчатов, г. Курчатов
Курская область;Город Льгов;Льгов;51.6869444444444;35.28;Курская область, Город Льгов, г. Льгов
Курская область;Город Щигры;Щигры;51.8761111111111;36.9119444444444;Курская область, Город Щигры, г. Щигры
Курская область;Дмитриевский;Дмитриев;52.1269444444444;35.073888888888895;Курская область, Дмитриевский, г. Дмитриев
Курская область;Обоянский;Обоянь;51.21;36.2675;Курская область, Обоянский, г. Обоянь
Курская область;Рыльский;Рыльск;51.5680555555556;34.6802777777778;Курская область, Рыльский, г. Рыльск
Курская область;Суджанский;Суджа;51.191944444444395;35.2719444444444;Курская область, Суджанский, г. Суджа
Курская область;Фатежский;Фатеж;52.0916666666667;35.853888888888896;Курская область, Фатежский, г. Фатеж
Ленинградская область;Бокситогорский муниципальный район;Бокситогорск;59.4736111111111;33.8477777777778;Ленинградская область, Бокситогорский муниципальный район, г. Бокситогорск
Ленинградская область;Бокситогорский муниципальный район;Пикалево;59.5130555555556;34.1772222222222;Ленинградская область, Бокситогорский муниципальный район, г. Пикалево
Ленинградская область;Волосовский муниципальный район;Волосово;59.4472222222222;29.4847222222222;Ленинградская область, Волосовский муниципальный район, г. Волосово
Ленинградская область;Волховский муниципальный район;Волхов;59.8183333333333;32.3675;Ленинградская область, Волховский муниципальный район, г. Волхов
Ленинградская область;Волховский муниципальный район;Новая Ладога;60.11;32.3141666666667;Ленинградская область, Волховский муниципальный район, г. Новая Ладога
Ленинградская область;Волховский муниципальный район;Сясьстрой;60.1419444444444;32.5566666666667;Ленинградская область, Волховский муниципальный район, г. Сясьстрой
Ленинградская область;Всеволожский муниципальный район;Всеволожск;60.0191666666667;30.6455555555556;Ленинградская область, Всеволожский муниципальный район, г. Всеволожск
Ленинградская область;Выборгский муниципальный район;Выборг;60.714444444444396;28.7572222222222;Ленинградская область, Выборгский муниципальный район, г. Выборг
Ленинградская область;Выборгский муниципальный район;Высоцк;60.6252777777778;28.568055555555603;Ленинградская область, Выборгский муниципальный район, г. Высоцк
Ленинградская область;Выборгский муниципальный район;Каменногорск;60.9508333333333;29.130833333333303;Ленинградская область, Выборгский муниципальный район, г. Каменногорск
Ленинградская область;Выборгский муниципальный район;Приморск;60.366111111111096;28.6136111111111;Ленинградская область, Выборгский муниципальный район, г. Приморск
Ленинградская область;Выборгский муниципальный район;Светогорск;61.1111111111111;28.872777777777802;Ленинградская область, Выборгский муниципальный район, г. Светогорск
Ленинградская область;Гатчинский муниципальный район;Гатчина;59.565277777777794;30.1280555555556;Ленинградская область, Гатчинский муниципальный район, г. Гатчина
Ленинградская область;Гатчинский муниципальный район;Коммунар;59.6216666666667;30.393611111111102;Ленинградская область, Гатчинский муниципальный район, г. Коммунар
Ленинградская область;Кингисеппский муниципальный район;Ивангород;59.3766666666667;28.2230555555556;Ленинградская область, Кингисеппский муниципальный район, г. Ивангород
Ленинградская область;Кингисеппский муниципальный район;Кингисепп;59.374166666666696;28.611388888888897;Ленинградская область, Кингисеппский муниципальный район, г. Кингисепп
Ленинградская область;Киришский муниципальный район;Кириши;59.4505555555556;32.0152777777778;Ленинградская область, Киришский муниципальный район, г. Кириши
Ленинградская область;Кировский муниципальный район;Кировск;59.8752777777778;30.981388888888898;Ленинградская область, Кировский муниципальный район, г. Кировск
Ленинградская область;Кировский муниципальный район;Отрадное;59.7725;30.798888888888897;Ленинградская область, Кировский муниципальный район, г. Отрадное
Ленинградская область;Кировский муниципальный район;Шлиссельбург;59.9444444444444;31.033333333333303;Ленинградская область, Кировский муниципальный район, г. Шлиссельбург
Ленинградская область;Лодейнопольский муниципальный район;Лодейное Поле;60.732222222222205;33.5522222222222;Ленинградская область, Лодейнопольский муниципальный район, г. Лодейное Поле
Ленинградская область;Лужский муниципальный район;Луга;58.7325;29.849166666666697;Ленинградская область, Лужский муниципальный район, г. Луга
Ленинградская область;Подпорожский муниципальный район;Подпорожье;60.9127777777778;34.1569444444444;Ленинградская область, Подпорожский муниципальный район, г. Подпорожье
Ленинградская область;Приозерский муниципальный район;Приозерск;61.0366666666667;30.1197222222222;Ленинградская область, Приозерский муниципальный район, г. Приозерск
Ленинградская область;Сланцевский муниципальный район;Сланцы;59.117777777777796;28.088055555555602;Ленинградская область, Сланцевский муниципальный район, г. Сланцы
Ленинградская область;Сосновоборский городской округ;Сосновый Бор;59.9041666666667;29.0922222222222;Ленинградская область, Сосновоборский городской округ, г. Сосновый Бор
Ленинградская область;Тихвинский муниципальный район;Тихвин;59.6441666666667;33.5422222222222;Ленинградская область, Тихвинский муниципальный район, г. Тихвин
Ленинградская область;Тосненский муниципальный район;Любань;59.3333333333333;31.2661111111111;Ленинградская область, Тосненский муниципальный район, г. Любань
Ленинградская область;Тосненский муниципальный район;Никольское;59.7044444444444;30.7875;Ленинградская область, Тосненский муниципальный район, г. Никольское
Ленинградская область;Тосненский муниципальный район;Тосно;59.5341666666667;30.8580555555556;Ленинградская область, Тосненский муниципальный район, г. Тосно
Липецкая область;Город Елец;Елец;52.6191666666667;38.5;Липецкая область, Город Елец, г. Елец
Липецкая область;Город Липецк;Липецк;52.6041666666667;39.5936111111111;Липецкая область, Город Липецк, г. Липецк
Липецкая область;Грязинский район;Грязи;52.483611111111095;39.95777777777779;Липецкая область, Грязинский район, г. Грязи
Липецкая область;Данковский район;Данков;53.2444444444444;39.1416666666667;Липецкая область, Данковский район, г. Данков
Липецкая область;Задонский район;Задонск;52.3919444444444;38.9194444444444;Липецкая область, Задонский район, г. Задонск
Липецкая область;Лебедянский район;Лебедянь;53.0205555555556;39.1313888888889;Липецкая область, Лебедянский район, г. Лебедянь
Липецкая область;Усманский район;Усмань;52.0433333333333;39.7361111111111;Липецкая область, Усманский район, г. Усмань
Липецкая область;Чаплыгинский район;Чаплыгин;53.2405555555556;39.9669444444444;Липецкая область, Чаплыгинский район, г. Чаплыгин
Магаданская область;;Магадан;59.5605555555556;150.798888888889;Магаданская область, г. Магадан
Магаданская область;Сусуманский;Сусуман;62.7805555555556;148.153888888889;Магаданская область, Сусуманский, г. Сусуман
Москва;Восточный;Москва;55.7538888888889;37.620277777777794;Москва, Восточный, г. Москва
Москва;Западный;Москва;55.7538888888889;37.620277777777794;Москва, Западный, г. Москва
Москва;Зеленоградский;Москва;55.7538888888889;37.620277777777794;Москва, Зеленоградский, г. Москва
Москва;Новомосковский;Москва;55.7538888888889;37.620277777777794;Москва, Новомосковский, г. Москва
Москва;Северный;Москва;55.7538888888889;37.620277777777794;Москва, Северный, г. Москва
Москва;Северо-Восточный;Москва;55.7538888888889;37.620277777777794;Москва, Северо-Восточный, г. Москва
Москва;Северо-Западный;Москва;55.7538888888889;37.620277777777794;Москва, Северо-Западный, г. Москва
Москва;Троицкий;Москва;55.7538888888889;37.620277777777794;Москва, Троицкий, г. Москва
Москва;Центральный;Москва;55.7538888888889;37.620277777777794;Москва, Центральный, г. Москва
Москва;Юго-Восточный;Москва;55.7538888888889;37.620277777777794;Москва, Юго-Восточный, г. Москва
Москва;Юго-Западный;Москва;55.7538888888889;37.620277777777794;Москва, Юго-Западный, г. Москва
Москва;Южный;Москва;55.7538888888889;37.620277777777794;Москва, Южный, г. Москва
Московская область;;Балашиха;55.796388888888906;37.9383333333333;Московская область, г. Балашиха
Московская область;;Бронницы;55.425555555555604;38.2641666666667;Московская область, г. Бронницы
Московская область;Волоколамский;Волоколамск;56.0358333333333;35.958611111111104;Московская область, Волоколамский, г. Волоколамск
Московская область;Воскресенский;Воскресенск;55.3230555555556;38.6733333333333;Московская область, Воскресенский, г. Воскресенск
Московская область;;Дзержинский;55.6308333333333;37.849722222222205;Московская область, г. Дзержинский
Московская область;Дмитровский;Дмитров;56.345;37.518333333333295;Московская область, Дмитровский, г. Дмитров
Московская область;Дмитровский;Яхрома;56.29;37.4844444444444;Московская область, Дмитровский, г. Яхрома
Московская область;;Долгопрудный;55.9336111111111;37.5144444444444;Московская область, г. Долгопрудный
Московская область;;Домодедово;55.4369444444444;37.7675;Московская область, г. Домодедово
Московская область;;Дубна;56.743888888888904;37.1730555555556;Московская область, г. Дубна
Московская область;Егорьевский;Егорьевск;55.3830555555556;39.035833333333294;Московская область, Егорьевский, г. Егорьевск
Московская область;;Жуковский;55.59777777777779;38.1194444444444;Московская область, г. Жуковский
Московская область;ЗАТО Краснознаменск;Краснознаменск;55.59777777777779;37.0394444444444;Московская область, ЗАТО Краснознаменск, г. Краснознаменск
Московская область;Зарайский;Зарайск;54.7569444444444;38.8747222222222;Московская область, Зарайский, г. Зарайск
Московская область;;Звенигород;55.72972222222221;36.8541666666667;Московская область, г. Звенигород
Московская область;;Ивантеевка;55.97;37.9175;Московская область, г. Ивантеевка
Московская область;Истринский;Дедовск;55.86;37.120555555555605;Московская область, Истринский, г. Дедовск
Московская область;Истринский;Истра;55.914166666666695;36.8605555555556;Московская область, Истринский, г. Истра
Московская область;Истринский;Снегири;55.885;37.0394444444444;Московская область, Истринский, г. Снегири
Московская область;Каширский;Кашира;54.8344444444444;38.1511111111111;Московская область, Каширский, г. Кашира
Московская область;Каширский;Ожерелье;54.7925;38.2658333333333;Московская область, Каширский, г. Ожерелье
Московская область;Клинский;Высоковск;56.3202777777778;36.551111111111105;Московская область, Клинский, г. Высоковск
Московская область;Клинский;Клин;56.3316666666667;36.7286111111111;Московская область, Клинский, г. Клин
Московская область;;Коломна;55.1030555555556;38.7530555555556;Московская область, г. Коломна
Московская область;Королёв;Королев;55.9222222222222;37.8544444444444;Московская область, Королёв, г. Королев
Московская область;;Котельники;55.65972222222221;37.863333333333294;Московская область, г. Котельники
Московская область;;Красноармейск;56.1208333333333;38.1405555555556;Московская область, г. Красноармейск
Московская область;Красногорский;Красногорск;55.831944444444396;37.3294444444444;Московская область, Красногорский, г. Красногорск
Московская область;Ленинский;Видное;55.5572222222222;37.708611111111104;Московская область, Ленинский, г. Видное
Московская область;;Лобня;56.011944444444396;37.475;Московская область, г. Лобня
Московская область;;Лосино-Петровский;55.8713888888889;38.2005555555556;Московская область, г. Лосино-Петровский
Московская область;Луховицкий;Луховицы;54.96527777777779;39.025277777777795;Московская область, Луховицкий, г. Луховицы
Московская область;;Лыткарино;55.5777777777778;37.90333333333329;Московская область, г. Лыткарино
Московская область;Люберецкий;Люберцы;55.6763888888889;37.8980555555556;Московская область, Люберецкий, г. Люберцы
Московская область;Можайский;Можайск;55.506666666666696;36.0172222222222;Московская область, Можайский, г. Можайск
Московская область;Мытищинский;Мытищи;55.9094444444444;37.7338888888889;Московская область, Мытищинский, г. Мытищи
Московская область;Наро-Фоминский;Апрелевка;55.5452777777778;37.073333333333295;Московская область, Наро-Фоминский, г. Апрелевка
Московская область;Наро-Фоминский;Верея;55.3433333333333;36.1855555555556;Московская область, Наро-Фоминский, г. Верея
Московская область;Наро-Фоминский;Наро-Фоминск;55.3861111111111;36.7344444444444;Московская область, Наро-Фоминский, г. Наро-Фоминск
Московская область;Ногинский;Ногинск;55.855;38.4427777777778;Московская область, Ногинский, г. Ногинск
Московская область;Ногинский;Старая Купавна;55.8108333333333;38.1736111111111;Московская область, Ногинский, г. Старая Купавна
Московская область;Ногинский;Электроугли;55.7163888888889;38.220833333333296;Московская область, Ногинский, г. Электроугли
Московская область;Одинцовский;Голицыно;55.6144444444444;36.9833333333333;Московская область, Одинцовский, г. Голицыно
Московская область;Одинцовский;Кубинка;55.5619444444444;36.7038888888889;Московская область, Одинцовский, г. Кубинка
Московская область;Одинцовский;Одинцово;55.678888888888906;37.2638888888889;Московская область, Одинцовский, г. Одинцово
Московская область;Озёры;Озеры;54.8538888888889;38.559722222222206;Московская область, Озёры, г. Озеры
Московская область;;Орехово-Зуево;55.8091666666667;38.978333333333296;Московская область, г. Орехово-Зуево
Московская область;Орехово-Зуевский;Дрезна;55.741388888888906;38.8425;Московская область, Орехово-Зуевский, г. Дрезна
Московская область;Орехово-Зуевский;Куровское;55.5791666666667;38.9208333333333;Московская область, Орехово-Зуевский, г. Куровское
Московская область;Орехово-Зуевский;Ликино-Дулево;55.70777777777779;38.95777777777779;Московская область, Орехово-Зуевский, г. Ликино-Дулево
Московская область;Павлово-Посадский;Павловский Посад;55.7794444444444;38.651388888888896;Московская область, Павлово-Посадский, г. Павловский Посад
Московская область;Подольск;Климовск;55.375;37.5388888888889;Московская область, Подольск, г. Климовск
Московская область;;Подольск;55.4311111111111;37.544722222222205;Московская область, г. Подольск
Московская область;;Протвино;54.870555555555605;37.2183333333333;Московская область, г. Протвино
Московская область;Пушкинский;Пушкино;56.0091666666667;37.852777777777796;Московская область, Пушкинский, г. Пушкино
Московская область;Раменский;Раменское;55.567222222222206;38.2258333333333;Московская область, Раменский, г. Раменское
Московская область;;Реутов;55.7605555555556;37.85527777777779;Московская область, г. Реутов
Московская область;;Рошаль;55.6633333333333;39.8655555555556;Московская область, г. Рошаль
Московская область;Рузский;Руза;55.7013888888889;36.1961111111111;Московская область, Рузский, г. Руза
Московская область;Сергиево-Посадский;Краснозаводск;56.4408333333333;38.2319444444444;Московская область, Сергиево-Посадский, г. Краснозаводск
Московская область;Сергиево-Посадский;Пересвет;56.4161111111111;38.1722222222222;Московская область, Сергиево-Посадский, г. Пересвет
Московская область;Сергиево-Посадский;Сергиев Посад;56.3161111111111;38.1344444444444;Московская область, Сергиево-Посадский, г. Сергиев Посад
Московская область;Сергиево-Посадский;Хотьково;56.2522222222222;37.9786111111111;Московская область, Сергиево-Посадский, г. Хотьково
Московская область;;Серпухов;54.913611111111095;37.4166666666667;Московская область, г. Серпухов
Московская область;Солнечногорский;Солнечногорск;56.1852777777778;36.9786111111111;Московская область, Солнечногорский, г. Солнечногорск
Московская область;Солнечногорский;Солнечногорск-2;56.202222222222204;37.036111111111104;Московская область, Солнечногорский, г. Солнечногорск-2
Московская область;Солнечногорский;Солнечногорск-30;56.1230555555556;36.8688888888889;Московская область, Солнечногорский, г. Солнечногорск-30
Московская область;Солнечногорский;Солнечногорск-7;56.2158333333333;37.0280555555556;Московская область, Солнечногорский, г. Солнечногорск-7
Московская область;Ступинский;Ступино;54.886944444444396;38.077222222222204;Московская область, Ступинский, г. Ступино
Московская область;Талдомский;Талдом;56.7308333333333;37.5275;Московская область, Талдомский, г. Талдом
Московская область;;Фрязино;55.9580555555556;38.052222222222206;Московская область, г. Фрязино
Московская область;;Химки;55.8888888888889;37.430277777777796;Московская область, г. Химки
Московская область;;Черноголовка;56.01;38.379166666666706;Московская область, г. Черноголовка
Московская область;Чеховский;Чехов;55.1497222222222;37.4669444444444;Московская область, Чеховский, г. Чехов
Московская область;Чеховский;Чехов-7;55.243888888888904;37.2811111111111;Московская область, Чеховский, г. Чехов-7
Московская область;Шатурский;Шатура;55.5777777777778;39.5444444444444;Московская область, Шатурский, г. Шатура
Московская область;Щёлковский;Щелково;55.919722222222205;37.988333333333294;Московская область, Щёлковский, г. Щелково
Московская область;;Электрогорск;55.8830555555556;38.785833333333294;Московская область, г. Электрогорск
Московская область;;Электросталь;55.7844444444444;38.444722222222204;Московская область, г. Электросталь
Мурманская область;Городской округ ЗАТО Александровск;Гаджиево;69.2488888888889;33.315;Мурманская область, Городской округ ЗАТО Александровск, г. Гаджиево
Мурманская область;Городской округ ЗАТО Александровск;Полярный;69.1988888888889;33.4508333333333;Мурманская область, Городской округ ЗАТО Александровск, г. Полярный
Мурманская область;Городской округ ЗАТО Александровск;Снежногорск;69.1919444444444;33.238055555555604;Мурманская область, Городской округ ЗАТО Александровск, г. Снежногорск
Мурманская область;Городской округ ЗАТО город Заозёрск;Заозерск;69.4002777777778;32.45;Мурманская область, Городской округ ЗАТО город Заозёрск, г. Заозерск
Мурманская область;Городской округ ЗАТО город Островной;Островной;68.0575;39.4872222222222;Мурманская область, Городской округ ЗАТО город Островной, г. Островной
Мурманская область;Городской округ ЗАТО город Североморск;Североморск;69.0763888888889;33.4177777777778;Мурманская область, Городской округ ЗАТО город Североморск, г. Североморск
Мурманская область;Городской округ Ковдорский район;Ковдор;67.5627777777778;30.473888888888897;Мурманская область, Городской округ Ковдорский район, г. Ковдор
Мурманская область;Городской округ город Апатиты с подведомственной территорией;Апатиты;67.56777777777779;33.4066666666667;Мурманская область, Городской округ город Апатиты с подведомственной территорией, г. Апатиты
Мурманская область;Городской округ город Кировск с подведомственной территорией;Кировск;67.615;33.6636111111111;Мурманская область, Городской округ город Кировск с подведомственной территорией, г. Кировск
Мурманская область;Городской округ город Мончегорск с подведомственной территорией;Мончегорск;67.9383333333333;32.9358333333333;Мурманская область, Городской округ город Мончегорск с подведомственной территорией, г. Мончегорск
Мурманская область;Городской округ город Мурманск;Мурманск;68.9694444444444;33.074444444444396;Мурманская область, Городской округ город Мурманск, г. Мурманск
Мурманская область;Городской округ город Оленегорск с подведомственной территорией;Оленегорск;68.1419444444444;33.2669444444444;Мурманская область, Городской округ город Оленегорск с подведомственной территорией, г. Оленегорск
Мурманская область;Городской округ город Полярные Зори с подведомственной территорией;Полярные Зори;67.3727777777778;32.4975;Мурманская область, Городской округ город Полярные Зори с подведомственной территорией, г. Полярные Зори
Мурманская область;Кандалакшский муниципальный район;Кандалакша;67.1566666666667;32.414166666666695;Мурманская область, Кандалакшский муниципальный район, г. Кандалакша
Мурманская область;Кольский муниципальный район;Кола;68.8786111111111;33.0261111111111;Мурманская область, Кольский муниципальный район, г. Кола
Мурманская область;Печенгский муниципальный район;Заполярный;69.4261111111111;30.8202777777778;Мурманская область, Печенгский муниципальный район, г. Заполярный
Ненецкий автономный округ;Город Нарьян-Мар;Нарьян-Мар;67.6380555555556;53.0069444444444;Ненецкий автономный округ, Город Нарьян-Мар, г. Нарьян-Мар
Нижегородская область;;Арзамас;55.3877777777778;43.8155555555556;Нижегородская область, г. Арзамас
Нижегородская область;Балахнинский район;Балахна;56.504444444444395;43.6019444444444;Нижегородская область, Балахнинский район, г. Балахна
Нижегородская область;Богородский район;Богородск;56.1019444444444;43.513611111111096;Нижегородская область, Богородский район, г. Богородск
Нижегородская область;;Бор;56.3563888888889;44.0644444444444;Нижегородская область, г. Бор
Нижегородская область;Ветлужский район;Ветлуга;57.8558333333333;45.7763888888889;Нижегородская область, Ветлужский район, г. Ветлуга
Нижегородская область;Володарский район;Володарск;56.2169444444444;43.15972222222221;Нижегородская область, Володарский район, г. Володарск
Нижегородская область;;Выкса;55.3205555555556;42.168055555555604;Нижегородская область, г. Выкса
Нижегородская область;Городецкий район;Городец;56.64472222222221;43.47222222222221;Нижегородская область, Городецкий район, г. Городец
Нижегородская область;Городецкий район;Заволжье;56.6405555555556;43.387222222222206;Нижегородская область, Городецкий район, г. Заволжье
Нижегородская область;;Дзержинск;56.2383333333333;43.4616666666667;Нижегородская область, г. Дзержинск
Нижегородская область;Княгининский район;Княгинино;55.8205555555556;45.0322222222222;Нижегородская область, Княгининский район, г. Княгинино
Нижегородская область;Кстовский район;Кстово;56.1505555555556;44.2066666666667;Нижегородская область, Кстовский район, г. Кстово
Нижегородская область;;Кулебаки;55.4297222222222;42.5125;Нижегородская область, г. Кулебаки
Нижегородская область;Лукояновский район;Лукоянов;55.032777777777795;44.493333333333304;Нижегородская область, Лукояновский район, г. Лукоянов
Нижегородская область;Лысковский район;Лысково;56.0263888888889;45.0358333333333;Нижегородская область, Лысковский район, г. Лысково
Нижегородская область;Навашинский;Навашино;55.5438888888889;42.1886111111111;Нижегородская область, Навашинский, г. Навашино
Нижегородская область;;Нижний Новгород;56.3269444444444;44.006111111111096;Нижегородская область, г. Нижний Новгород
Нижегородская область;Павловский район;Ворсма;55.99;43.2719444444444;Нижегородская область, Павловский район, г. Ворсма
Нижегородская область;Павловский район;Горбатов;56.1308333333333;43.0627777777778;Нижегородская область, Павловский район, г. Горбатов
Нижегородская область;Павловский район;Павлово;55.96472222222221;43.0644444444444;Нижегородская область, Павловский район, г. Павлово
Нижегородская область;;Первомайск;54.8675;43.8013888888889;Нижегородская область, г. Первомайск
Нижегородская область;Перевозский район;Перевоз;55.5969444444444;44.545;Нижегородская область, Перевозский район, г. Перевоз
Нижегородская область;;Саров;54.922777777777796;43.3447222222222;Нижегородская область, г. Саров
Нижегородская область;Семёновский;Семенов;56.7913888888889;44.483888888888906;Нижегородская область, Семёновский, г. Семенов
Нижегородская область;Сергачский район;Сергач;55.52;45.4813888888889;Нижегородская область, Сергачский район, г. Сергач
Нижегородская область;Уренский район;Урень;57.461111111111094;45.7833333333333;Нижегородская область, Уренский район, г. Урень
Нижегородская область;;Чкаловск;56.6794444444444;43.0680555555556;Нижегородская область, г. Чкаловск
Нижегородская область;;Шахунья;57.6763888888889;46.612777777777794;Нижегородская область, г. Шахунья
Новгородская область;Боровичский муниципальный район;Боровичи;58.3883333333333;33.9138888888889;Новгородская область, Боровичский муниципальный район, г. Боровичи
Новгородская область;Валдайский муниципальный район;Валдай;57.98027777777779;33.2466666666667;Новгородская область, Валдайский муниципальный район, г. Валдай
Новгородская область;Город Великий Новгород;Великий Новгород;58.5213888888889;31.275555555555602;Новгородская область, Город Великий Новгород, г. Великий Новгород
Новгородская область;Маловишерский муниципальный район;Малая Вишера;58.8458333333333;32.2177777777778;Новгородская область, Маловишерский муниципальный район, г. Малая Вишера
Новгородская область;Окуловский муниципальный район;Окуловка;58.390833333333305;33.2902777777778;Новгородская область, Окуловский муниципальный район, г. Окуловка
Новгородская область;Пестовский муниципальный район;Пестово;58.595277777777795;35.800555555555604;Новгородская область, Пестовский муниципальный район, г. Пестово
Новгородская область;Солецкий муниципальный район;Сольцы;58.120277777777794;30.3094444444444;Новгородская область, Солецкий муниципальный район, г. Сольцы
Новгородская область;Старорусский муниципальный район;Старая Русса;57.9908333333333;31.3555555555556;Новгородская область, Старорусский муниципальный район, г. Старая Русса
Новгородская область;Холмский муниципальный район;Холм;57.14527777777779;31.1788888888889;Новгородская область, Холмский муниципальный район, г. Холм
Новгородская область;Чудовский муниципальный район;Чудово;59.1211111111111;31.6702777777778;Новгородская область, Чудовский муниципальный район, г. Чудово
Новосибирская область;Барабинский район;Барабинск;55.3502777777778;78.34194444444451;Новосибирская область, Барабинский район, г. Барабинск
Новосибирская область;;Бердск;54.758333333333304;83.1072222222222;Новосибирская область, г. Бердск
Новосибирская область;Болотнинский район;Болотное;55.6694444444444;84.3908333333333;Новосибирская область, Болотнинский район, г. Болотное
Новосибирская область;;Искитим;54.6425;83.3063888888889;Новосибирская область, г. Искитим
Новосибирская область;Карасукский район;Карасук;53.734166666666695;78.0425;Новосибирская область, Карасукский район, г. Карасук
Новосибирская область;Каргатский район;Каргат;55.1944444444444;80.28305555555549;Новосибирская область, Каргатский район, г. Каргат
Новосибирская область;Куйбышевский район;Куйбышев;55.45;78.3083333333333;Новосибирская область, Куйбышевский район, г. Куйбышев
Новосибирская область;Купинский район;Купино;54.366111111111096;77.2972222222222;Новосибирская область, Купинский район, г. Купино
Новосибирская область;;Новосибирск;55.0283333333333;82.9233333333333;Новосибирская область, г. Новосибирск
Новосибирская область;;Обь;54.9947222222222;82.6938888888889;Новосибирская область, г. Обь
Новосибирская область;;Татарск;55.214444444444396;75.9741666666667;Новосибирская область, г. Татарск
Новосибирская область;Тогучинский район;Тогучин;55.238055555555604;84.4027777777778;Новосибирская область, Тогучинский район, г. Тогучин
Новосибирская область;Черепановский район;Черепаново;54.2205555555556;83.3725;Новосибирская область, Черепановский район, г. Черепаново
Новосибирская область;Чулымский район;Чулым;55.0913888888889;80.9633333333333;Новосибирская область, Чулымский район, г. Чулым
Омская область;Исилькульский район;Исилькуль;54.9091666666667;71.2672222222222;Омская область, Исилькульский район, г. Исилькуль
Омская область;Калачинский район;Калачинск;55.0516666666667;74.5783333333333;Омская область, Калачинский район, г. Калачинск
Омская область;Называевский район;Называевск;55.5688888888889;71.35027777777779;Омская область, Называевский район, г. Называевск
Омская область;;Омск;54.9922222222222;73.3683333333333;Омская область, г. Омск
Омская область;Тарский район;Тара;56.901944444444396;74.37194444444441;Омская область, Тарский район, г. Тара
Омская область;Тюкалинский район;Тюкалинск;55.870555555555605;72.19555555555559;Омская область, Тюкалинский район, г. Тюкалинск
Оренбургская область;Абдулинский городской округ;Абдулино;53.6777777777778;53.647222222222204;Оренбургская область, Абдулинский городской округ, г. Абдулино
Оренбургская область;;Бугуруслан;53.65222222222221;52.4325;Оренбургская область, г. Бугуруслан
Оренбургская область;;Бузулук;52.7880555555556;52.2625;Оренбургская область, г. Бузулук
Оренбургская область;;Гай;51.465;58.443611111111096;Оренбургская область, г. Гай
Оренбургская область;;Кувандык;51.4786111111111;57.3611111111111;Оренбургская область, г. Кувандык
Оренбургская область;;Медногорск;51.4038888888889;57.5833333333333;Оренбургская область, г. Медногорск
Оренбургская область;;Новотроицк;51.196388888888904;58.3016666666667;Оренбургская область, г. Новотроицк
Оренбургская область;;Оренбург;51.7683333333333;55.0969444444444;Оренбургская область, г. Оренбург
Оренбургская область;;Орск;51.2294444444444;58.4752777777778;Оренбургская область, г. Орск
Оренбургская область;Соль-Илецкий городской округ;Соль-Илецк;51.1619444444444;54.98027777777779;Оренбургская область, Соль-Илецкий городской округ, г. Соль-Илецк
Оренбургская область;;Сорочинск;52.429166666666696;53.1511111111111;Оренбургская область, г. Сорочинск
Оренбургская область;Ясненский городской округ;Ясный;51.0369444444444;59.8744444444444;Оренбургская область, Ясненский городской округ, г. Ясный
Орловская область;Болховский;Болхов;53.4488888888889;36.0022222222222;Орловская область, Болховский, г. Болхов
Орловская область;Город Ливны;Ливны;52.4266666666667;37.6080555555556;Орловская область, Город Ливны, г. Ливны
Орловская область;Город Мценск;Мценск;53.2788888888889;36.575;Орловская область, Город Мценск, г. Мценск
Орловская область;Город Орёл;Орёл;52.967222222222205;36.069722222222204;Орловская область, Город Орёл, г. Орёл
Орловская область;Дмитровский;Дмитровск;52.5055555555556;35.1413888888889;Орловская область, Дмитровский, г. Дмитровск
Орловская область;Малоархангельский;Малоархангельск;52.4011111111111;36.5022222222222;Орловская область, Малоархангельский, г. Малоархангельск
Орловская область;Новосильский;Новосиль;52.974722222222205;37.0438888888889;Орловская область, Новосильский, г. Новосиль
Пензенская область;Белинский район;Белинский;52.9669444444444;43.4130555555556;Пензенская область, Белинский район, г. Белинский
Пензенская область;Городищенский район;Городище;53.273611111111094;45.702222222222204;Пензенская область, Городищенский район, г. Городище
Пензенская область;Городищенский район;Сурск;53.072777777777794;45.686111111111096;Пензенская область, Городищенский район, г. Сурск
Пензенская область;;Заречный;53.196111111111094;45.1691666666667;Пензенская область, г. Заречный
Пензенская область;Каменский район;Каменка;53.1855555555556;43.9947222222222;Пензенская область, Каменский район, г. Каменка
Пензенская область;;Кузнецк;53.1125;46.6008333333333;Пензенская область, г. Кузнецк
Пензенская область;Нижнеломовский район;Нижний Ломов;53.53;43.6736111111111;Пензенская область, Нижнеломовский район, г. Нижний Ломов
Пензенская область;Никольский район;Никольск;53.7130555555556;46.08277777777779;Пензенская область, Никольский район, г. Никольск
Пензенская область;;Пенза;53.2;45.0;Пензенская область, г. Пенза
Пензенская область;Сердобский район;Сердобск;52.4558333333333;44.2027777777778;Пензенская область, Сердобский район, г. Сердобск
Пензенская область;Спасский район;Спасск;53.931388888888904;43.1886111111111;Пензенская область, Спасский район, г. Спасск
Пермский край;Александровский район;Александровск;59.1630555555556;57.584722222222204;Пермский край, Александровский район, г. Александровск
Пермский край;;Березники;59.4080555555556;56.803888888888906;Пермский край, г. Березники
Пермский край;Верещагинский район;Верещагино;58.0797222222222;54.6580555555556;Пермский край, Верещагинский район, г. Верещагино
Пермский край;Горнозаводский район;Горнозаводск;58.3747222222222;58.3308333333333;Пермский край, Горнозаводский район, г. Горнозаводск
Пермский край;Гремячинский район;Гремячинск;58.5625;57.8519444444444;Пермский край, Гремячинский район, г. Гремячинск
Пермский край;;Губаха;58.8369444444444;57.5544444444444;Пермский край, г. Губаха
Пермский край;Добрянский район;Добрянка;58.4697222222222;56.4130555555556;Пермский край, Добрянский район, г. Добрянка
Пермский край;Ильинский район;Чермоз;58.7844444444444;56.1508333333333;Пермский край, Ильинский район, г. Чермоз
Пермский край;Кизеловский район;Кизел;59.0494444444444;57.6538888888889;Пермский край, Кизеловский район, г. Кизел
Пермский край;Красновишерский район;Красновишерск;60.4127777777778;57.0833333333333;Пермский край, Красновишерский район, г. Красновишерск
Пермский край;Краснокамский район;Краснокамск;58.078333333333305;55.736388888888904;Пермский край, Краснокамский район, г. Краснокамск
Пермский край;;Кудымкар;59.0144444444444;54.664166666666695;Пермский край, г. Кудымкар
Пермский край;;Кунгур;57.4283333333333;56.9438888888889;Пермский край, г. Кунгур
Пермский край;;Лысьва;58.1002777777778;57.8091666666667;Пермский край, г. Лысьва
Пермский край;Нытвенский район;Нытва;57.9391666666667;55.328611111111094;Пермский край, Нытвенский район, г. Нытва
Пермский край;Осинский район;Оса;57.288888888888906;55.4691666666667;Пермский край, Осинский район, г. Оса
Пермский край;Оханский район;Оханск;57.7219444444444;55.388611111111096;Пермский край, Оханский район, г. Оханск
Пермский край;Очёрский район;Очер;57.885277777777794;54.7161111111111;Пермский край, Очёрский район, г. Очер
Пермский край;;Пермь;58.010277777777794;56.234166666666695;Пермский край, г. Пермь
Пермский край;;Соликамск;59.648333333333305;56.7711111111111;Пермский край, г. Соликамск
Пермский край;Усольский район;Усолье;59.4277777777778;56.6838888888889;Пермский край, Усольский район, г. Усолье
Пермский край;Чайковский городской округ;Чайковский;56.7780555555556;54.1477777777778;Пермский край, Чайковский городской округ, г. Чайковский
Пермский край;Чайковский район;Чайковский;56.7780555555556;54.1477777777778;Пермский край, Чайковский район, г. Чайковский
Пермский край;Чердынский район;Чердынь;60.40277777777779;56.4794444444444;Пермский край, Чердынский район, г. Чердынь
Пермский край;Чернушинский район;Чернушка;56.516111111111094;56.0763888888889;Пермский край, Чернушинский район, г. Чернушка
Пермский край;Чусовской район;Чусовой;58.2975;57.8194444444444;Пермский край, Чусовской район, г. Чусовой
Приморский край;Арсеньевский;Арсеньев;44.162222222222205;133.26972222222201;Приморский край, Арсеньевский, г. Арсеньев
Приморский край;Артёмовский;Артем;43.3622222222222;132.18138888888902;Приморский край, Артёмовский, г. Артем
Приморский край;;Большой Камень;43.1111111111111;132.348055555556;Приморский край, г. Большой Камень
Приморский край;Владивостокский;Владивосток;43.1152777777778;131.885277777778;Приморский край, Владивостокский, г. Владивосток
Приморский край;Городской округ Партизанский;Партизанск;43.1280555555556;133.126388888889;Приморский край, Городской округ Партизанский, г. Партизанск
Приморский край;Городской округ Спасск-Дальний;Спасск-Дальний;44.59777777777779;132.8175;Приморский край, Городской округ Спасск-Дальний, г. Спасск-Дальний
Приморский край;Дальнегорский;Дальнегорск;44.553888888888906;135.56611111111098;Приморский край, Дальнегорский, г. Дальнегорск
Приморский край;ЗАТО Фокино;Фокино;42.9708333333333;132.41111111111098;Приморский край, ЗАТО Фокино, г. Фокино
Приморский край;Лесозаводский городской округ;Лесозаводск;45.4780555555556;133.418611111111;Приморский край, Лесозаводский городской округ, г. Лесозаводск
Приморский край;Находкинский городской округ;Находка;42.824166666666706;132.892777777778;Приморский край, Находкинский городской округ, г. Находка
Приморский край;Уссурийский;Уссурийск;43.7972222222222;131.951666666667;Приморский край, Уссурийский, г. Уссурийск
Приморский край;город Дальнереченск;Дальнереченск;45.930833333333304;133.731666666667;Приморский край, город Дальнереченск, г. Дальнереченск
Псковская область;Великолукский район;Великие Луки;56.3427777777778;30.5233333333333;Псковская область, Великолукский район, г. Великие Луки
Псковская область;Гдовский район;Гдов;58.743333333333304;27.826388888888896;Псковская область, Гдовский район, г. Гдов
Псковская область;Дновский район;Дно;57.8269444444444;29.963055555555602;Псковская область, Дновский район, г. Дно
Псковская область;Невельский район;Невель;56.02027777777779;29.923888888888897;Псковская область, Невельский район, г. Невель
Псковская область;Новоржевский район;Новоржев;57.0286111111111;29.338055555555602;Псковская область, Новоржевский район, г. Новоржев
Псковская область;Новосокольнический район;Новосокольники;56.3408333333333;30.1527777777778;Псковская область, Новосокольнический район, г. Новосокольники
Псковская область;Опочецкий район;Опочка;56.7141666666667;28.66;Псковская область, Опочецкий район, г. Опочка
Псковская область;Островский район;Остров;57.345277777777795;28.3438888888889;Псковская область, Островский район, г. Остров
Псковская область;Печорский район;Печоры;57.813888888888904;27.6091666666667;Псковская область, Печорский район, г. Печоры
Псковская область;Порховский район;Порхов;57.764722222222204;29.553055555555602;Псковская область, Порховский район, г. Порхов
Псковская область;Пустошкинский район;Пустошка;56.3375;29.3666666666667;Псковская область, Пустошкинский район, г. Пустошка
Псковская область;Пыталовский район;Пыталово;57.061666666666696;27.918888888888898;Псковская область, Пыталовский район, г. Пыталово
Псковская область;Себежский район;Себеж;56.2908333333333;28.4725;Псковская область, Себежский район, г. Себеж
Псковская область;городской округ Великие Луки;Великие Луки;56.3427777777778;30.5233333333333;Псковская область, городской округ Великие Луки, г. Великие Луки
Псковская область;городской округ Псков;Псков;57.8175;28.334444444444397;Псковская область, городской округ Псков, г. Псков
Республика Адыгея;Городской округ Адыгейск;Адыгейск;44.8783333333333;39.190277777777794;Республика Адыгея, Городской округ Адыгейск, г. Адыгейск
Республика Адыгея;Городской округ Майкоп;Майкоп;44.6097222222222;40.1005555555556;Республика Адыгея, Городской округ Майкоп, г. Майкоп
Республика Алтай;;Горно-Алтайск;51.9580555555556;85.9602777777778;Республика Алтай, г. Горно-Алтайск
Республика Башкортостан;;Агидель;55.8997222222222;53.9219444444444;Республика Башкортостан, г. Агидель
Республика Башкортостан;Баймакский;Баймак;52.5913888888889;58.311111111111096;Республика Башкортостан, Баймакский, г. Баймак
Республика Башкортостан;Белебеевский;Белебей;54.1033333333333;54.1111111111111;Республика Башкортостан, Белебеевский, г. Белебей
Республика Башкортостан;Белорецкий;Белорецк;53.9675;58.41;Республика Башкортостан, Белорецкий, г. Белорецк
Республика Башкортостан;Бирский;Бирск;55.4125;55.5405555555556;Республика Башкортостан, Бирский, г. Бирск
Республика Башкортостан;Благовещенский;Благовещенск;55.046388888888906;55.9483333333333;Республика Башкортостан, Благовещенский, г. Благовещенск
Республика Башкортостан;Давлекановский;Давлеканово;54.22277777777779;55.031388888888905;Республика Башкортостан, Давлекановский, г. Давлеканово
Республика Башкортостан;Дюртюлинский;Дюртюли;55.485277777777796;54.8733333333333;Республика Башкортостан, Дюртюлинский, г. Дюртюли
Республика Башкортостан;ЗАТО город Межгорье;Межгорье;54.058055555555605;57.8311111111111;Республика Башкортостан, ЗАТО город Межгорье, г. Межгорье
Республика Башкортостан;Ишимбайский;Ишимбай;53.418055555555604;56.04;Республика Башкортостан, Ишимбайский, г. Ишимбай
Республика Башкортостан;;Кумертау;52.756666666666696;55.7969444444444;Республика Башкортостан, г. Кумертау
Республика Башкортостан;Мелеузовский;Мелеуз;52.9588888888889;55.9283333333333;Республика Башкортостан, Мелеузовский, г. Мелеуз
Республика Башкортостан;Нефтекамск<U+200E>;Нефтекамск;56.0883333333333;54.2480555555556;Республика Башкортостан, Нефтекамск<U+200E>, г. Нефтекамск
Республика Башкортостан;;Октябрьский;54.4813888888889;53.4655555555556;Республика Башкортостан, г. Октябрьский
Республика Башкортостан;;Салават;53.3616666666667;55.9244444444444;Республика Башкортостан, г. Салават
Республика Башкортостан;;Сибай;52.7205555555556;58.6663888888889;Республика Башкортостан, г. Сибай
Республика Башкортостан;;Стерлитамак;53.6302777777778;55.9316666666667;Республика Башкортостан, г. Стерлитамак
Республика Башкортостан;Туймазинский;Туймазы;54.6;53.695;Республика Башкортостан, Туймазинский, г. Туймазы
Республика Башкортостан;Учалинский;Учалы;54.319166666666696;59.3786111111111;Республика Башкортостан, Учалинский, г. Учалы
Республика Башкортостан;Янаульский;Янаул;56.265;54.9297222222222;Республика Башкортостан, Янаульский, г. Янаул
Республика Бурятия;Закаменский район;Закаменск;50.3727777777778;103.286666666667;Республика Бурятия, Закаменский район, г. Закаменск
Республика Бурятия;Кабанский район;Бабушкин;51.711388888888905;105.8675;Республика Бурятия, Кабанский район, г. Бабушкин
Республика Бурятия;Кяхтинский район;Кяхта;50.3466666666667;106.45333333333299;Республика Бурятия, Кяхтинский район, г. Кяхта
Республика Бурятия;;Северобайкальск;55.6361111111111;109.335555555556;Республика Бурятия, г. Северобайкальск
Республика Бурятия;Селенгинский район;Гусиноозерск;51.2866666666667;106.523055555556;Республика Бурятия, Селенгинский район, г. Гусиноозерск
Республика Бурятия;;Улан-Удэ;51.8344444444444;107.584444444444;Республика Бурятия, г. Улан-Удэ
Республика Дагестан;;Буйнакск;42.8213888888889;47.116388888888906;Республика Дагестан, г. Буйнакск
Республика Дагестан;;Дагестанские Огни;42.1152777777778;48.1938888888889;Республика Дагестан, г. Дагестанские Огни
Республика Дагестан;;Дербент;42.057777777777794;48.288888888888906;Республика Дагестан, г. Дербент
Республика Дагестан;;Избербаш;42.565277777777794;47.8711111111111;Республика Дагестан, г. Избербаш
Республика Дагестан;;Каспийск;42.8916666666667;47.6366666666667;Республика Дагестан, г. Каспийск
Республика Дагестан;;Кизилюрт;43.2047222222222;46.8669444444444;Республика Дагестан, г. Кизилюрт
Республика Дагестан;;Кизляр;43.8475;46.7116666666667;Республика Дагестан, г. Кизляр
Республика Дагестан;;Махачкала;42.9830555555556;47.504722222222206;Республика Дагестан, г. Махачкала
Республика Дагестан;;Хасавюрт;43.2463888888889;46.59;Республика Дагестан, г. Хасавюрт
Республика Дагестан;;Южно-Сухокумск;44.66027777777779;45.65;Республика Дагестан, г. Южно-Сухокумск
Республика Ингушетия;;Карабулак;43.3102777777778;44.904722222222205;Республика Ингушетия, г. Карабулак
Республика Ингушетия;;Магас;43.1675;44.8091666666667;Республика Ингушетия, г. Магас
Республика Ингушетия;;Малгобек;43.5058333333333;44.5833333333333;Республика Ингушетия, г. Малгобек
Республика Ингушетия;;Назрань;43.2255555555556;44.7711111111111;Республика Ингушетия, г. Назрань
Республика Калмыкия;Городовиковский район;Городовиковск;46.0830555555556;41.9361111111111;Республика Калмыкия, Городовиковский район, г. Городовиковск
Республика Калмыкия;Лаганский район;Лагань;45.3930555555556;47.3433333333333;Республика Калмыкия, Лаганский район, г. Лагань
Республика Калмыкия;городской округ Элиста;Элиста;46.3083333333333;44.27027777777779;Республика Калмыкия, городской округ Элиста, г. Элиста
Республика Карелия;Беломорский;Беломорск;64.5230555555556;34.7666666666667;Республика Карелия, Беломорский, г. Беломорск
Республика Карелия;Кемский;Кемь;64.9544444444444;34.595;Республика Карелия, Кемский, г. Кемь
Республика Карелия;Кондопожский;Кондопога;62.2055555555556;34.246111111111105;Республика Карелия, Кондопожский, г. Кондопога
Республика Карелия;Костомукшский;Костомукша;64.5891666666667;30.6016666666667;Республика Карелия, Костомукшский, г. Костомукша
Республика Карелия;Лахденпохский;Лахденпохья;61.5188888888889;30.1994444444444;Республика Карелия, Лахденпохский, г. Лахденпохья
Республика Карелия;Медвежьегорский;Медвежьегорск;62.915;34.473055555555604;Республика Карелия, Медвежьегорский, г. Медвежьегорск
Республика Карелия;Олонецкий национальный;Олонец;60.9794444444444;32.9727777777778;Республика Карелия, Олонецкий национальный, г. Олонец
Республика Карелия;Петрозаводский;Петрозаводск;61.789166666666695;34.3597222222222;Республика Карелия, Петрозаводский, г. Петрозаводск
Республика Карелия;Питкярантский;Питкяранта;61.5730555555556;31.4713888888889;Республика Карелия, Питкярантский, г. Питкяранта
Республика Карелия;Пудожский;Пудож;61.805833333333304;36.5330555555556;Республика Карелия, Пудожский, г. Пудож
Республика Карелия;Сегежский;Сегежа;63.7436111111111;34.3125;Республика Карелия, Сегежский, г. Сегежа
Республика Карелия;Сортавальский;Сортавала;61.703333333333305;30.6916666666667;Республика Карелия, Сортавальский, г. Сортавала
Республика Карелия;Суоярвский;Суоярви;62.078611111111094;32.35;Республика Карелия, Суоярвский, г. Суоярви
Республика Коми;ГО Воркута;Воркута;67.4975;64.0608333333333;Республика Коми, ГО Воркута, г. Воркута
Республика Коми;ГО Инта;Инта;66.0366666666667;60.1152777777778;Республика Коми, ГО Инта, г. Инта
Республика Коми;ГО Сыктывкар;Сыктывкар;61.6686111111111;50.8344444444444;Республика Коми, ГО Сыктывкар, г. Сыктывкар
Республика Коми;ГО Усинск;Усинск;65.9938888888889;57.5569444444444;Республика Коми, ГО Усинск, г. Усинск
Республика Коми;ГО Ухта;Ухта;63.5625;53.6838888888889;Республика Коми, ГО Ухта, г. Ухта
Республика Коми;МР Вуктыл;Вуктыл;63.8441666666667;57.2997222222222;Республика Коми, МР Вуктыл, г. Вуктыл
Республика Коми;МР Княжпогостский;Емва;62.5983333333333;50.8863888888889;Республика Коми, МР Княжпогостский, г. Емва
Республика Коми;МР Печора;Печора;65.1483333333333;57.2238888888889;Республика Коми, МР Печора, г. Печора
Республика Коми;МР Сосногорск;Сосногорск;63.5988888888889;53.876388888888904;Республика Коми, МР Сосногорск, г. Сосногорск
Республика Коми;МР Усть-Вымский;Микунь;62.3577777777778;50.0719444444444;Республика Коми, МР Усть-Вымский, г. Микунь
Республика Крым;;Алушта;44.6763888888889;34.41;Республика Крым, г. Алушта
Республика Крым;;Армянск;46.1058333333333;33.691111111111105;Республика Крым, г. Армянск
Республика Крым;Бахчисарайский район;Бахчисарай;44.751388888888904;33.875;Республика Крым, Бахчисарайский район, г. Бахчисарай
Республика Крым;Белогорский район;Белогорск;45.0572222222222;34.6;Республика Крым, Белогорский район, г. Белогорск
Республика Крым;;Джанкой;45.7091666666667;34.3883333333333;Республика Крым, г. Джанкой
Республика Крым;Джанкойский район;Джанкой;45.7091666666667;34.3883333333333;Республика Крым, Джанкойский район, г. Джанкой
Республика Крым;;Евпатория;45.1905555555556;33.3669444444444;Республика Крым, г. Евпатория
Республика Крым;;Керчь;45.3561111111111;36.467222222222205;Республика Крым, г. Керчь
Республика Крым;Кировский район;Старый Крым;45.0291666666667;35.09;Республика Крым, Кировский район, г. Старый Крым
Республика Крым;;Красноперекопск;45.953611111111094;33.7922222222222;Республика Крым, г. Красноперекопск
Республика Крым;Красноперекопский район;Красноперекопск;45.953611111111094;33.7922222222222;Республика Крым, Красноперекопский район, г. Красноперекопск
Республика Крым;Ленинский район;Щелкино;45.4236111111111;35.8186111111111;Республика Крым, Ленинский район, г. Щелкино
Республика Крым;;Саки;45.1255555555556;33.5944444444444;Республика Крым, г. Саки
Республика Крым;Сакский район;Саки;45.1341666666667;33.6033333333333;Республика Крым, Сакский район, г. Саки
Республика Крым;;Симферополь;44.9483333333333;34.1002777777778;Республика Крым, г. Симферополь
Республика Крым;;Судак;44.8505555555556;34.9761111111111;Республика Крым, г. Судак
Республика Крым;;Феодосия;45.0319444444444;35.3825;Республика Крым, г. Феодосия
Республика Крым;Ялта;Алупка;44.4163888888889;34.0444444444444;Республика Крым, Ялта, г. Алупка
Республика Крым;;Ялта;44.495277777777794;34.166388888888896;Республика Крым, г. Ялта
Республика Марий Эл;Город Волжск;Волжск;55.8622222222222;48.3713888888889;Республика Марий Эл, Город Волжск, г. Волжск
Республика Марий Эл;Звениговский район;Звенигово;55.9738888888889;48.0169444444444;Республика Марий Эл, Звениговский район, г. Звенигово
Республика Марий Эл;;Йошкар-Ола;56.6344444444444;47.9;Республика Марий Эл, г. Йошкар-Ола
Республика Марий Эл;;Козьмодемьянск;56.3333333333333;46.546666666666695;Республика Марий Эл, г. Козьмодемьянск
Республика Мордовия;Ардатовский;Ардатов;54.8466666666667;46.241111111111096;Республика Мордовия, Ардатовский, г. Ардатов
Республика Мордовия;Инсарский;Инсар;53.862777777777794;44.3622222222222;Республика Мордовия, Инсарский, г. Инсар
Республика Мордовия;Ковылкинский;Ковылкино;54.039166666666695;43.9191666666667;Республика Мордовия, Ковылкинский, г. Ковылкино
Республика Мордовия;Краснослободский;Краснослободск;54.4277777777778;43.781111111111095;Республика Мордовия, Краснослободский, г. Краснослободск
Республика Мордовия;Рузаевский;Рузаевка;54.0583333333333;44.9544444444444;Республика Мордовия, Рузаевский, г. Рузаевка
Республика Мордовия;;Саранск;54.1872222222222;45.1836111111111;Республика Мордовия, г. Саранск
Республика Мордовия;Темниковский;Темников;54.6313888888889;43.211111111111094;Республика Мордовия, Темниковский, г. Темников
Республика Саха (Якутия);Алданский;Алдан;58.6030555555556;125.38444444444401;Республика Саха (Якутия), Алданский, г. Алдан
Республика Саха (Якутия);Алданский;Томмот;58.9594444444444;126.269722222222;Республика Саха (Якутия), Алданский, г. Томмот
Республика Саха (Якутия);Верхоянский;Верхоянск;67.55;133.38333333333298;Республика Саха (Якутия), Верхоянский, г. Верхоянск
Республика Саха (Якутия);Вилюйский;Вилюйск;63.75;121.616666666667;Республика Саха (Якутия), Вилюйский, г. Вилюйск
Республика Саха (Якутия);Город Якутск;Якутск;62.039166666666695;129.735833333333;Республика Саха (Якутия), Город Якутск, г. Якутск
Республика Саха (Якутия);Ленский;Ленск;60.7244444444444;114.928333333333;Республика Саха (Якутия), Ленский, г. Ленск
Республика Саха (Якутия);Мирнинский;Мирный;62.5425;113.98416666666701;Республика Саха (Якутия), Мирнинский, г. Мирный
Республика Саха (Якутия);Мирнинский;Удачный;66.4086111111111;112.29888888888901;Республика Саха (Якутия), Мирнинский, г. Удачный
Республика Саха (Якутия);Нерюнгринский;Нерюнгри;56.6611111111111;124.71888888888901;Республика Саха (Якутия), Нерюнгринский, г. Нерюнгри
Республика Саха (Якутия);Нюрбинский;Нюрба;63.2825;118.340833333333;Республика Саха (Якутия), Нюрбинский, г. Нюрба
Республика Саха (Якутия);Олёкминский;Олекминск;60.3752777777778;120.428888888889;Республика Саха (Якутия), Олёкминский, г. Олекминск
Республика Саха (Якутия);Среднеколымский;Среднеколымск;67.4591666666667;153.71138888888902;Республика Саха (Якутия), Среднеколымский, г. Среднеколымск
Республика Саха (Якутия);Хангаласский;Покровск;61.483888888888906;129.150555555556;Республика Саха (Якутия), Хангаласский, г. Покровск
Республика Северная Осетия - Алания;Алагирский;Алагир;43.0416666666667;44.22;Республика Северная Осетия - Алания, Алагирский, г. Алагир
Республика Северная Осетия - Алания;Ардонский;Ардон;43.175555555555604;44.2955555555556;Республика Северная Осетия - Алания, Ардонский, г. Ардон
Республика Северная Осетия - Алания;;Владикавказ;43.0205555555556;44.6819444444444;Республика Северная Осетия - Алания, г. Владикавказ
Республика Северная Осетия - Алания;Дигорский;Дигора;43.1566666666667;44.155;Республика Северная Осетия - Алания, Дигорский, г. Дигора
Республика Северная Осетия - Алания;Моздокский;Моздок;43.747222222222206;44.6569444444444;Республика Северная Осетия - Алания, Моздокский, г. Моздок
Республика Северная Осетия - Алания;Правобережный;Беслан;43.1938888888889;44.5338888888889;Республика Северная Осетия - Алания, Правобережный, г. Беслан
Республика Татарстан;Агрызский район;Агрыз;56.5263888888889;52.995277777777794;Республика Татарстан, Агрызский район, г. Агрыз
Республика Татарстан;Азнакаевский район;Азнакаево;54.8597222222222;53.074444444444396;Республика Татарстан, Азнакаевский район, г. Азнакаево
Республика Татарстан;Альметьевский район;Альметьевск;54.9013888888889;52.2972222222222;Республика Татарстан, Альметьевский район, г. Альметьевск
Республика Татарстан;Арский район;Арск;56.0913888888889;49.8769444444444;Республика Татарстан, Арский район, г. Арск
Республика Татарстан;Бавлинский район;Бавлы;54.406388888888905;53.2458333333333;Республика Татарстан, Бавлинский район, г. Бавлы
Республика Татарстан;Бугульминский район;Бугульма;54.5363888888889;52.7894444444444;Республика Татарстан, Бугульминский район, г. Бугульма
Республика Татарстан;Буинский район;Буинск;54.9641666666667;48.290277777777796;Республика Татарстан, Буинский район, г. Буинск
Республика Татарстан;Верхнеуслонский район;Иннополис;55.7519444444444;48.7447222222222;Республика Татарстан, Верхнеуслонский район, г. Иннополис
Республика Татарстан;Елабужский район;Елабуга;55.756666666666696;52.0544444444444;Республика Татарстан, Елабужский район, г. Елабуга
Республика Татарстан;Заинский район;Заинск;55.298888888888904;52.0063888888889;Республика Татарстан, Заинский район, г. Заинск
Республика Татарстан;Зеленодольский район;Зеленодольск;55.8466666666667;48.5011111111111;Республика Татарстан, Зеленодольский район, г. Зеленодольск
Республика Татарстан;;Казань;55.7986111111111;49.1063888888889;Республика Татарстан, г. Казань
Республика Татарстан;Лаишевский район;Лаишево;55.4044444444444;49.55;Республика Татарстан, Лаишевский район, г. Лаишево
Республика Татарстан;Лениногорский район;Лениногорск;54.5966666666667;52.4433333333333;Республика Татарстан, Лениногорский район, г. Лениногорск
Республика Татарстан;Мамадышский район;Мамадыш;55.715;51.4127777777778;Республика Татарстан, Мамадышский район, г. Мамадыш
Республика Татарстан;Менделеевский район;Менделеевск;55.89527777777779;52.3144444444444;Республика Татарстан, Менделеевский район, г. Менделеевск
Республика Татарстан;Мензелинский район;Мензелинск;55.72;53.101388888888906;Республика Татарстан, Мензелинский район, г. Мензелинск
Республика Татарстан;;Набережные Челны;55.7436111111111;52.3958333333333;Республика Татарстан, г. Набережные Челны
Республика Татарстан;Нижнекамский район;Нижнекамск;55.633888888888904;51.8091666666667;Республика Татарстан, Нижнекамский район, г. Нижнекамск
Республика Татарстан;Нурлатский район;Нурлат;54.4280555555556;50.805;Республика Татарстан, Нурлатский район, г. Нурлат
Республика Татарстан;Спасский район;Болгар;54.975;49.0302777777778;Республика Татарстан, Спасский район, г. Болгар
Республика Татарстан;Тетюшский район;Тетюши;54.936666666666696;48.8313888888889;Республика Татарстан, Тетюшский район, г. Тетюши
Республика Татарстан;Чистопольский район;Чистополь;55.372222222222206;50.6436111111111;Республика Татарстан, Чистопольский район, г. Чистополь
Республика Тыва;;Ак-Довурак;51.178611111111096;90.59861111111108;Республика Тыва, г. Ак-Довурак
Республика Тыва;Дзун-Хемчикский кожуун;Чадан;51.2844444444444;91.57888888888891;Республика Тыва, Дзун-Хемчикский кожуун, г. Чадан
Республика Тыва;;Кызыл;51.7191666666667;94.43777777777781;Республика Тыва, г. Кызыл
Республика Тыва;Пий-Хемский кожуун;Туран;52.145;93.9172222222222;Республика Тыва, Пий-Хемский кожуун, г. Туран
Республика Тыва;Улуг-Хемский кожуун;Шагонар;51.53472222222221;92.92;Республика Тыва, Улуг-Хемский кожуун, г. Шагонар
Республика Хакасия;;Абаза;52.6516666666667;90.08861111111109;Республика Хакасия, г. Абаза
Республика Хакасия;;Абакан;53.7211111111111;91.4425;Республика Хакасия, г. Абакан
Республика Хакасия;;Саяногорск;53.1008333333333;91.4122222222222;Республика Хакасия, г. Саяногорск
Республика Хакасия;;Сорск;54.0002777777778;90.25944444444441;Республика Хакасия, г. Сорск
Республика Хакасия;;Черногорск;53.8269444444444;91.3061111111111;Республика Хакасия, г. Черногорск
Ростовская область;Аксайский;Аксай;47.26972222222221;39.8625;Ростовская область, Аксайский, г. Аксай
Ростовская область;Белокалитвинский;Белая Калитва;48.1769444444444;40.8033333333333;Ростовская область, Белокалитвинский, г. Белая Калитва
Ростовская область;Город Азов;Азов;47.1122222222222;39.4233333333333;Ростовская область, Город Азов, г. Азов
Ростовская область;Город Батайск;Батайск;47.1383333333333;39.7508333333333;Ростовская область, Город Батайск, г. Батайск
Ростовская область;Город Волгодонск;Волгодонск;47.5166666666667;42.198333333333295;Ростовская область, Город Волгодонск, г. Волгодонск
Ростовская область;Город Гуково;Гуково;48.0583333333333;39.940277777777794;Ростовская область, Город Гуково, г. Гуково
Ростовская область;Город Донецк;Донецк;48.335;39.9461111111111;Ростовская область, Город Донецк, г. Донецк
Ростовская область;Город Зверево;Зверево;48.0436111111111;40.1263888888889;Ростовская область, Город Зверево, г. Зверево
Ростовская область;Город Каменск-Шахтинский;Каменск-Шахтинский;48.3205555555556;40.268888888888895;Ростовская область, Город Каменск-Шахтинский, г. Каменск-Шахтинский
Ростовская область;Город Новочеркасск;Новочеркасск;47.4119444444444;40.1041666666667;Ростовская область, Город Новочеркасск, г. Новочеркасск
Ростовская область;Город Новошахтинск;Новошахтинск;47.7577777777778;39.9363888888889;Ростовская область, Город Новошахтинск, г. Новошахтинск
Ростовская область;Город Ростов-на-Дону;Ростов-на-Дону;47.2225;39.7186111111111;Ростовская область, Город Ростов-на-Дону, г. Ростов-на-Дону
Ростовская область;Город Таганрог;Таганрог;47.2094444444444;38.9352777777778;Ростовская область, Город Таганрог, г. Таганрог
Ростовская область;Город Шахты;Шахты;47.7086111111111;40.21583333333329;Ростовская область, Город Шахты, г. Шахты
Ростовская область;Зерноградский;Зерноград;46.8494444444444;40.3127777777778;Ростовская область, Зерноградский, г. Зерноград
Ростовская область;Константиновский;Константиновск;47.577222222222204;41.09666666666671;Ростовская область, Константиновский, г. Константиновск
Ростовская область;Красносулинский;Красный Сулин;47.89472222222221;40.058055555555605;Ростовская область, Красносулинский, г. Красный Сулин
Ростовская область;Миллеровский;Миллерово;48.921666666666695;40.396666666666704;Ростовская область, Миллеровский, г. Миллерово
Ростовская область;Морозовский;Морозовск;48.351111111111095;41.830833333333295;Ростовская область, Морозовский, г. Морозовск
Ростовская область;Пролетарский;Пролетарск;46.703888888888905;41.7275;Ростовская область, Пролетарский, г. Пролетарск
Ростовская область;Сальский;Сальск;46.4752777777778;41.5411111111111;Ростовская область, Сальский, г. Сальск
Ростовская область;Семикаракорский;Семикаракорск;47.517777777777795;40.8113888888889;Ростовская область, Семикаракорский, г. Семикаракорск
Ростовская область;Цимлянский;Цимлянск;47.6477777777778;42.0930555555556;Ростовская область, Цимлянский, г. Цимлянск
Рязанская область;Город Касимов;Касимов;54.9372222222222;41.3913888888889;Рязанская область, Город Касимов, г. Касимов
Рязанская область;Город Рязань;Рязань;54.629444444444395;39.7425;Рязанская область, Город Рязань, г. Рязань
Рязанская область;Город Сасово;Сасово;54.343888888888905;41.9208333333333;Рязанская область, Город Сасово, г. Сасово
Рязанская область;Город Скопин;Скопин;53.8236111111111;39.5494444444444;Рязанская область, Город Скопин, г. Скопин
Рязанская область;Клепиковский район;Спас-Клепики;55.131111111111096;40.175833333333294;Рязанская область, Клепиковский район, г. Спас-Клепики
Рязанская область;Кораблинский район;Кораблино;53.9247222222222;40.0227777777778;Рязанская область, Кораблинский район, г. Кораблино
Рязанская область;Михайловский район;Михайлов;54.2325;39.0236111111111;Рязанская область, Михайловский район, г. Михайлов
Рязанская область;Пронский район;Новомичуринск;54.0377777777778;39.746666666666705;Рязанская область, Пронский район, г. Новомичуринск
Рязанская область;Рыбновский район;Рыбное;54.7291666666667;39.4936111111111;Рязанская область, Рыбновский район, г. Рыбное
Рязанская область;Ряжский район;Ряжск;53.7088888888889;40.0627777777778;Рязанская область, Ряжский район, г. Ряжск
Рязанская область;Сасовский район;Сасово;54.343888888888905;41.9208333333333;Рязанская область, Сасовский район, г. Сасово
Рязанская область;Спасский район;Спасск-Рязанский;54.4069444444444;40.3763888888889;Рязанская область, Спасский район, г. Спасск-Рязанский
Рязанская область;Шацкий район;Шацк;54.023611111111094;41.7130555555556;Рязанская область, Шацкий район, г. Шацк
Самарская область;Жигулёвск;Жигулевск;53.4011111111111;49.4944444444444;Самарская область, Жигулёвск, г. Жигулевск
Самарская область;;Кинель;53.2211111111111;50.6344444444444;Самарская область, г. Кинель
Самарская область;Нефтегорский район;Нефтегорск;52.7972222222222;51.163888888888906;Самарская область, Нефтегорский район, г. Нефтегорск
Самарская область;;Новокуйбышевск;53.0994444444444;49.947777777777794;Самарская область, г. Новокуйбышевск
Самарская область;;Октябрьск;53.164166666666695;48.6705555555556;Самарская область, г. Октябрьск
Самарская область;;Отрадный;53.3761111111111;51.3488888888889;Самарская область, г. Отрадный
Самарская область;;Похвистнево;53.6497222222222;52.123611111111096;Самарская область, г. Похвистнево
Самарская область;;Самара;53.1955555555556;50.101666666666695;Самарская область, г. Самара
Самарская область;;Сызрань;53.1558333333333;48.4744444444444;Самарская область, г. Сызрань
Самарская область;;Тольятти;53.508888888888904;49.4191666666667;Самарская область, г. Тольятти
Самарская область;;Чапаевск;52.9788888888889;49.7136111111111;Самарская область, г. Чапаевск
Санкт-Петербург;Адмиралтейский;Санкт-Петербург;59.9391666666667;30.315833333333302;Санкт-Петербург, Адмиралтейский, г. Санкт-Петербург
Санкт-Петербург;Василеостровский;Санкт-Петербург;59.9391666666667;30.315833333333302;Санкт-Петербург, Василеостровский, г. Санкт-Петербург
Санкт-Петербург;Выборгский;Санкт-Петербург;59.9391666666667;30.315833333333302;Санкт-Петербург, Выборгский, г. Санкт-Петербург
Санкт-Петербург;Калининский;Санкт-Петербург;59.9391666666667;30.315833333333302;Санкт-Петербург, Калининский, г. Санкт-Петербург
Санкт-Петербург;Кировский;Санкт-Петербург;59.9391666666667;30.315833333333302;Санкт-Петербург, Кировский, г. Санкт-Петербург
Санкт-Петербург;Колпинский;Санкт-Петербург;59.9391666666667;30.315833333333302;Санкт-Петербург, Колпинский, г. Санкт-Петербург
Санкт-Петербург;Красногвардейский;Санкт-Петербург;59.9391666666667;30.315833333333302;Санкт-Петербург, Красногвардейский, г. Санкт-Петербург
Санкт-Петербург;Красносельский;Санкт-Петербург;59.9391666666667;30.315833333333302;Санкт-Петербург, Красносельский, г. Санкт-Петербург
Санкт-Петербург;Кронштадтский;Санкт-Петербург;59.9391666666667;30.315833333333302;Санкт-Петербург, Кронштадтский, г. Санкт-Петербург
Санкт-Петербург;Курортный;Санкт-Петербург;59.9391666666667;30.315833333333302;Санкт-Петербург, Курортный, г. Санкт-Петербург
Санкт-Петербург;Ломоносовский муниципальный район;Ломоносов;59.9094444444444;29.7766666666667;Санкт-Петербург, Ломоносовский муниципальный район, г. Ломоносов
Санкт-Петербург;Московский;Санкт-Петербург;59.9391666666667;30.315833333333302;Санкт-Петербург, Московский, г. Санкт-Петербург
Санкт-Петербург;Невский;Санкт-Петербург;59.9391666666667;30.315833333333302;Санкт-Петербург, Невский, г. Санкт-Петербург
Санкт-Петербург;Петроградский;Санкт-Петербург;59.9391666666667;30.315833333333302;Санкт-Петербург, Петроградский, г. Санкт-Петербург
Санкт-Петербург;Петродворцовый;Санкт-Петербург;59.9391666666667;30.315833333333302;Санкт-Петербург, Петродворцовый, г. Санкт-Петербург
Санкт-Петербург;Приморский;Санкт-Петербург;59.9391666666667;30.315833333333302;Санкт-Петербург, Приморский, г. Санкт-Петербург
Санкт-Петербург;Пушкинский;Санкт-Петербург;59.9391666666667;30.315833333333302;Санкт-Петербург, Пушкинский, г. Санкт-Петербург
Санкт-Петербург;Фрунзенский;Санкт-Петербург;59.9391666666667;30.315833333333302;Санкт-Петербург, Фрунзенский, г. Санкт-Петербург
Санкт-Петербург;Центральный;Санкт-Петербург;59.9391666666667;30.315833333333302;Санкт-Петербург, Центральный, г. Санкт-Петербург
Саратовская область;Аркадакский район;Аркадак;51.938888888888904;43.4997222222222;Саратовская область, Аркадакский район, г. Аркадак
Саратовская область;Аткарский район;Аткарск;51.873611111111096;45.0002777777778;Саратовская область, Аткарский район, г. Аткарск
Саратовская область;Балаковский район;Балаково;52.022222222222204;47.782777777777795;Саратовская область, Балаковский район, г. Балаково
Саратовская область;Балашовский район;Балашов;51.5547222222222;43.1463888888889;Саратовская область, Балашовский район, г. Балашов
Саратовская область;Вольский район;Вольск;52.0458333333333;47.387222222222206;Саратовская область, Вольский район, г. Вольск
Саратовская область;Ершовский район;Ершов;51.351111111111095;48.273611111111094;Саратовская область, Ершовский район, г. Ершов
Саратовская область;ЗАТО Шиханы;Шиханы;52.114722222222206;47.202222222222204;Саратовская область, ЗАТО Шиханы, г. Шиханы
Саратовская область;Калининский район;Калининск;51.4994444444444;44.4711111111111;Саратовская область, Калининский район, г. Калининск
Саратовская область;Красноармейский район;Красноармейск;51.023611111111094;45.695;Саратовская область, Красноармейский район, г. Красноармейск
Саратовская область;Краснокутский район;Красный Кут;50.9513888888889;46.9680555555556;Саратовская область, Краснокутский район, г. Красный Кут
Саратовская область;Марксовский район;Маркс;51.7133333333333;46.74;Саратовская область, Марксовский район, г. Маркс
Саратовская область;Новоузенский район;Новоузенск;50.4663888888889;48.132222222222204;Саратовская область, Новоузенский район, г. Новоузенск
Саратовская область;Петровский район;Петровск;52.313888888888904;45.39;Саратовская область, Петровский район, г. Петровск
Саратовская область;Пугачёвский район;Пугачев;52.015833333333305;48.7972222222222;Саратовская область, Пугачёвский район, г. Пугачев
Саратовская область;Ртищевский район;Ртищево;52.258611111111094;43.7880555555556;Саратовская область, Ртищевский район, г. Ртищево
Саратовская область;;Саратов;51.5330555555556;46.0341666666667;Саратовская область, г. Саратов
Саратовская область;Хвалынский район;Хвалынск;52.495;48.10472222222221;Саратовская область, Хвалынский район, г. Хвалынск
Саратовская область;Энгельсский район;Энгельс;51.4855555555556;46.1266666666667;Саратовская область, Энгельсский район, г. Энгельс
Сахалинская область;Анивский городской округ;Анива;46.7130555555556;142.526666666667;Сахалинская область, Анивский городской округ, г. Анива
Сахалинская область;Корсаковский городской округ;Корсаков;46.633888888888904;142.780277777778;Сахалинская область, Корсаковский городской округ, г. Корсаков
Сахалинская область;Курильский городской округ;Курильск;45.2252777777778;147.883888888889;Сахалинская область, Курильский городской округ, г. Курильск
Сахалинская область;Макаровский городской округ;Макаров;48.625;142.778888888889;Сахалинская область, Макаровский городской округ, г. Макаров
Сахалинская область;Невельский городской округ;Невельск;46.65277777777779;141.863055555556;Сахалинская область, Невельский городской округ, г. Невельск
Сахалинская область;Поронайский городской округ;Поронайск;49.220277777777795;143.089444444444;Сахалинская область, Поронайский городской округ, г. Поронайск
Сахалинская область;Северо-Курильский городской округ;Северо-Курильск;50.6763888888889;156.124166666667;Сахалинская область, Северо-Курильский городской округ, г. Северо-Курильск
Сахалинская область;Томаринский городской округ;Томари;47.762222222222206;142.061666666667;Сахалинская область, Томаринский городской округ, г. Томари
Сахалинская область;Углегорский городской округ;Углегорск;49.0816666666667;142.069166666667;Сахалинская область, Углегорский городской округ, г. Углегорск
Сахалинская область;Холмский городской округ;Холмск;47.0408333333333;142.041666666667;Сахалинская область, Холмский городской округ, г. Холмск
Сахалинская область;городской округ Александровск-Сахалинский район;Александровск-Сахалинский;50.894444444444396;142.159444444444;Сахалинская область, городской округ Александровск-Сахалинский район, г. Александровск-Сахалинский
Сахалинская область;городской округ Город Южно-Сахалинск;Южно-Сахалинск;46.9591666666667;142.738055555556;Сахалинская область, городской округ Город Южно-Сахалинск, г. Южно-Сахалинск
Сахалинская область;городской округ Долинский;Долинск;47.326111111111096;142.793333333333;Сахалинская область, городской округ Долинский, г. Долинск
Сахалинская область;городской округ Охинский;Оха;53.5844444444444;142.947222222222;Сахалинская область, городской округ Охинский, г. Оха
Свердловская область;Арамильский городской округ;Арамиль;56.6944444444444;60.8444444444444;Свердловская область, Арамильский городской округ, г. Арамиль
Свердловская область;Артёмовский городской округ;Артемовский;57.3383333333333;61.89472222222221;Свердловская область, Артёмовский городской округ, г. Артемовский
Свердловская область;Асбестовский городской округ;Асбест;57.026944444444396;61.4594444444444;Свердловская область, Асбестовский городской округ, г. Асбест
Свердловская область;Берёзовский городской округ;Березовский;56.90972222222221;60.8180555555556;Свердловская область, Берёзовский городской округ, г. Березовский
Свердловская область;Верхнесалдинский городской округ;Верхняя Салда;58.046666666666695;60.5561111111111;Свердловская область, Верхнесалдинский городской округ, г. Верхняя Салда
Свердловская область;Волчанский городской округ;Волчанск;59.935;60.0797222222222;Свердловская область, Волчанский городской округ, г. Волчанск
Свердловская область;Ивдельский городской округ;Ивдель;60.6944444444444;60.4244444444444;Свердловская область, Ивдельский городской округ, г. Ивдель
Свердловская область;Ирбитское муниципальное образование;Ирбит;57.6838888888889;63.057777777777794;Свердловская область, Ирбитское муниципальное образование, г. Ирбит
Свердловская область;Камышловский городской округ;Камышлов;56.8466666666667;62.7119444444444;Свердловская область, Камышловский городской округ, г. Камышлов
Свердловская область;Качканарский городской округ;Качканар;58.705;59.483888888888906;Свердловская область, Качканарский городской округ, г. Качканар
Свердловская область;Кировградский городской округ;Кировград;57.4325;60.0627777777778;Свердловская область, Кировградский городской округ, г. Кировград
Свердловская область;Кушвинский городской округ;Кушва;58.2825;59.764722222222204;Свердловская область, Кушвинский городской округ, г. Кушва
Свердловская область;Муниципальное образование город Алапаевск;Алапаевск;57.8475;61.6694444444444;Свердловская область, Муниципальное образование город Алапаевск, г. Алапаевск
Свердловская область;Невьянский городской округ;Невьянск;57.491111111111096;60.2183333333333;Свердловская область, Невьянский городской округ, г. Невьянск
Свердловская область;Нижнесергинский муниципальный район;Михайловск;56.4369444444444;59.1138888888889;Свердловская область, Нижнесергинский муниципальный район, г. Михайловск
Свердловская область;Нижнесергинский муниципальный район;Нижние Серги;56.6544444444444;59.2952777777778;Свердловская область, Нижнесергинский муниципальный район, г. Нижние Серги
Свердловская область;Нижнетуринский городской округ;Нижняя Тура;58.631111111111096;59.8522222222222;Свердловская область, Нижнетуринский городской округ, г. Нижняя Тура
Свердловская область;Новолялинский городской округ;Новая Ляля;59.053888888888906;60.5944444444444;Свердловская область, Новолялинский городской округ, г. Новая Ляля
Свердловская область;Новоуральский городской округ;Новоуральск;57.247222222222206;60.0955555555556;Свердловская область, Новоуральский городской округ, г. Новоуральск
Свердловская область;Полевской городской округ;Полевской;56.4958333333333;60.2366666666667;Свердловская область, Полевской городской округ, г. Полевской
Свердловская область;Режевской городской округ;Реж;57.3716666666667;61.383333333333304;Свердловская область, Режевской городской округ, г. Реж
Свердловская область;Североуральский городской округ;Североуральск;60.1533333333333;59.9525;Свердловская область, Североуральский городской округ, г. Североуральск
Свердловская область;Серовский городской округ;Серов;59.60527777777779;60.5736111111111;Свердловская область, Серовский городской округ, г. Серов
Свердловская область;Сысертский городской округ;Сысерть;56.5005555555556;60.8188888888889;Свердловская область, Сысертский городской округ, г. Сысерть
Свердловская область;Тавдинский городской округ;Тавда;58.0433333333333;65.2741666666667;Свердловская область, Тавдинский городской округ, г. Тавда
Свердловская область;Талицкий городской округ;Талица;57.012222222222206;63.732222222222205;Свердловская область, Талицкий городской округ, г. Талица
Свердловская область;Туринский городской округ;Туринск;58.0394444444444;63.6980555555556;Свердловская область, Туринский городской округ, г. Туринск
Свердловская область;город Каменск-Уральский;Каменск-Уральский;56.413888888888906;61.9188888888889;Свердловская область, город Каменск-Уральский, г. Каменск-Уральский
Свердловская область;город Нижний Тагил;Нижний Тагил;57.9075;59.97222222222221;Свердловская область, город Нижний Тагил, г. Нижний Тагил
Свердловская область;городской округ «Нижняя Салда»;Нижняя Салда;58.074722222222206;60.7025;Свердловская область, городской округ «Нижняя Салда», г. Нижняя Салда
Свердловская область;городской округ «город Лесной»;Лесной;58.6355555555556;59.7986111111111;Свердловская область, городской округ «город Лесной», г. Лесной
Свердловская область;городской округ Богданович;Богданович;56.7763888888889;62.046388888888906;Свердловская область, городской округ Богданович, г. Богданович
Свердловская область;городской округ Верхний Тагил;Верхний Тагил;57.376388888888904;59.951666666666696;Свердловская область, городской округ Верхний Тагил, г. Верхний Тагил
Свердловская область;городской округ Верхняя Пышма;Верхняя Пышма;56.9758333333333;60.565;Свердловская область, городской округ Верхняя Пышма, г. Верхняя Пышма
Свердловская область;городской округ Верхняя Тура;Верхняя Тура;58.3597222222222;59.8202777777778;Свердловская область, городской округ Верхняя Тура, г. Верхняя Тура
Свердловская область;городской округ Верхотурский;Верхотурье;58.8622222222222;60.8102777777778;Свердловская область, городской округ Верхотурский, г. Верхотурье
Свердловская область;городской округ Дегтярск;Дегтярск;56.6983333333333;60.0866666666667;Свердловская область, городской округ Дегтярск, г. Дегтярск
Свердловская область;городской округ Заречный;Заречный;56.8102777777778;61.3380555555556;Свердловская область, городской округ Заречный, г. Заречный
Свердловская область;городской округ Карпинск;Карпинск;59.7666666666667;60.0011111111111;Свердловская область, городской округ Карпинск, г. Карпинск
Свердловская область;городской округ Краснотурьинск;Краснотурьинск;59.7558333333333;60.2061111111111;Свердловская область, городской округ Краснотурьинск, г. Краснотурьинск
Свердловская область;городской округ Красноуральск;Красноуральск;58.3486111111111;60.0408333333333;Свердловская область, городской округ Красноуральск, г. Красноуральск
Свердловская область;городской округ Красноуфимск;Красноуфимск;56.617777777777796;57.7705555555556;Свердловская область, городской округ Красноуфимск, г. Красноуфимск
Свердловская область;городской округ Первоуральск;Первоуральск;56.9052777777778;59.9433333333333;Свердловская область, городской округ Первоуральск, г. Первоуральск
Свердловская область;городской округ Ревда;Ревда;56.8;59.9086111111111;Свердловская область, городской округ Ревда, г. Ревда
Свердловская область;городской округ Среднеуральск;Среднеуральск;56.9919444444444;60.4772222222222;Свердловская область, городской округ Среднеуральск, г. Среднеуральск
Свердловская область;городской округ Сухой Лог;Сухой Лог;56.904722222222205;62.035;Свердловская область, городской округ Сухой Лог, г. Сухой Лог
Свердловская область;муниципальное образование «город Екатеринбург»;Екатеринбург;56.8386111111111;60.605555555555604;Свердловская область, муниципальное образование «город Екатеринбург», г. Екатеринбург
Севастополь;;Балаклава;44.505;33.5983333333333;Севастополь, г. Балаклава
Севастополь;;Инкерман;44.6144444444444;33.6088888888889;Севастополь, г. Инкерман
Севастополь;город Севастополь;Севастополь;44.616666666666696;33.5255555555556;Севастополь, город Севастополь, г. Севастополь
Смоленская область;Велижский район;Велиж;55.6038888888889;31.197222222222198;Смоленская область, Велижский район, г. Велиж
Смоленская область;Вяземский район;Вязьма;55.2058333333333;34.2980555555556;Смоленская область, Вяземский район, г. Вязьма
Смоленская область;Гагаринский район;Гагарин;55.5533333333333;34.9969444444444;Смоленская область, Гагаринский район, г. Гагарин
Смоленская область;Город Десногорск;Десногорск;54.1463888888889;33.2833333333333;Смоленская область, Город Десногорск, г. Десногорск
Смоленская область;Город Смоленск;Смоленск;54.7941666666667;32.055;Смоленская область, Город Смоленск, г. Смоленск
Смоленская область;Демидовский район;Демидов;55.2644444444444;31.515;Смоленская область, Демидовский район, г. Демидов
Смоленская область;Дорогобужский район;Дорогобуж;54.913888888888906;33.3025;Смоленская область, Дорогобужский район, г. Дорогобуж
Смоленская область;Духовщинский район;Духовщина;55.1911111111111;32.4077777777778;Смоленская область, Духовщинский район, г. Духовщина
Смоленская область;Ельнинский район;Ельня;54.576111111111096;33.1794444444444;Смоленская область, Ельнинский район, г. Ельня
Смоленская область;Починковский район;Починок;54.406388888888905;32.4397222222222;Смоленская область, Починковский район, г. Починок
Смоленская область;Рославльский район;Рославль;53.9472222222222;32.8566666666667;Смоленская область, Рославльский район, г. Рославль
Смоленская область;Руднянский район;Рудня;54.9472222222222;31.091944444444398;Смоленская область, Руднянский район, г. Рудня
Смоленская область;Сафоновский район;Сафоново;55.1069444444444;33.24;Смоленская область, Сафоновский район, г. Сафоново
Смоленская область;Сычёвский район;Сычевка;55.8308333333333;34.2777777777778;Смоленская область, Сычёвский район, г. Сычевка
Смоленская область;Ярцевский район;Ярцево;55.068611111111096;32.6897222222222;Смоленская область, Ярцевский район, г. Ярцево
Ставропольский край;Благодарненский район;Благодарный;45.0991666666667;43.4305555555556;Ставропольский край, Благодарненский район, г. Благодарный
Ставропольский край;Будённовский район;Буденновск;44.7816666666667;44.165;Ставропольский край, Будённовский район, г. Буденновск
Ставропольский край;;Георгиевск;44.148611111111094;43.4738888888889;Ставропольский край, г. Георгиевск
Ставропольский край;Город-курорт Ессентуки;Ессентуки;44.0444444444444;42.8588888888889;Ставропольский край, Город-курорт Ессентуки, г. Ессентуки
Ставропольский край;Город-курорт Железноводск;Железноводск;44.1319444444444;43.0305555555556;Ставропольский край, Город-курорт Железноводск, г. Железноводск
Ставропольский край;Город-курорт Кисловодск;Кисловодск;43.9052777777778;42.716666666666704;Ставропольский край, Город-курорт Кисловодск, г. Кисловодск
Ставропольский край;Город-курорт Пятигорск;Пятигорск;44.0397222222222;43.070833333333304;Ставропольский край, Город-курорт Пятигорск, г. Пятигорск
Ставропольский край;Изобильненский район;Изобильный;45.3686111111111;41.708611111111104;Ставропольский край, Изобильненский район, г. Изобильный
Ставропольский край;Ипатовский район;Ипатово;45.7183333333333;42.8969444444444;Ставропольский край, Ипатовский район, г. Ипатово
Ставропольский край;Кировский район;Новопавловск;43.9575;43.6319444444444;Ставропольский край, Кировский район, г. Новопавловск
Ставропольский край;;Лермонтов;44.10527777777779;42.973055555555604;Ставропольский край, г. Лермонтов
Ставропольский край;Минераловодский городской округ;Минеральные Воды;44.2088888888889;43.1383333333333;Ставропольский край, Минераловодский городской округ, г. Минеральные Воды
Ставропольский край;;Невинномысск;44.6383333333333;41.9361111111111;Ставропольский край, г. Невинномысск
Ставропольский край;Нефтекумский район;Нефтекумск;44.754444444444395;44.9866666666667;Ставропольский край, Нефтекумский район, г. Нефтекумск
Ставропольский край;Новоалександровский район;Новоалександровск;45.493333333333304;41.21527777777779;Ставропольский край, Новоалександровский район, г. Новоалександровск
Ставропольский край;Петровский район;Светлоград;45.328611111111094;42.856666666666705;Ставропольский край, Петровский район, г. Светлоград
Ставропольский край;Советский район;Зеленокумск;44.4033333333333;43.8841666666667;Ставропольский край, Советский район, г. Зеленокумск
Ставропольский край;;Ставрополь;45.0444444444444;41.9691666666667;Ставропольский край, г. Ставрополь
Ставропольский край;Шпаковский район;Михайловск;45.129722222222206;42.0288888888889;Ставропольский край, Шпаковский район, г. Михайловск
Тамбовская область;Город Кирсанов;Кирсанов;52.6505555555556;42.7286111111111;Тамбовская область, Город Кирсанов, г. Кирсанов
Тамбовская область;Город Котовск;Котовск;52.5930555555556;41.5058333333333;Тамбовская область, Город Котовск, г. Котовск
Тамбовская область;Город Мичуринск;Мичуринск;52.8938888888889;40.4980555555556;Тамбовская область, Город Мичуринск, г. Мичуринск
Тамбовская область;Город Моршанск;Моршанск;53.443611111111096;41.8116666666667;Тамбовская область, Город Моршанск, г. Моршанск
Тамбовская область;Город Рассказово;Рассказово;52.6538888888889;41.8741666666667;Тамбовская область, Город Рассказово, г. Рассказово
Тамбовская область;Город Тамбов;Тамбов;52.72972222222221;41.4486111111111;Тамбовская область, Город Тамбов, г. Тамбов
Тамбовская область;Город Уварово;Уварово;51.9769444444444;42.2530555555556;Тамбовская область, Город Уварово, г. Уварово
Тамбовская область;Жердевский район;Жердевка;51.842222222222205;41.4616666666667;Тамбовская область, Жердевский район, г. Жердевка
Тверская область;Андреапольский район;Андреаполь;56.6508333333333;32.261944444444396;Тверская область, Андреапольский район, г. Андреаполь
Тверская область;Бежецкий район;Бежецк;57.785555555555604;36.6938888888889;Тверская область, Бежецкий район, г. Бежецк
Тверская область;Бельский район;Белый;55.8338888888889;32.9388888888889;Тверская область, Бельский район, г. Белый
Тверская область;Бологовский район;Бологое;57.8855555555556;34.0538888888889;Тверская область, Бологовский район, г. Бологое
Тверская область;Весьегонский район;Весьегонск;58.6583333333333;37.2591666666667;Тверская область, Весьегонский район, г. Весьегонск
Тверская область;Город Вышний Волочёк;Вышний Волочек;57.5683333333333;34.5402777777778;Тверская область, Город Вышний Волочёк, г. Вышний Волочек
Тверская область;Город Кимры;Кимры;56.8733333333333;37.355555555555604;Тверская область, Город Кимры, г. Кимры
Тверская область;Город Ржев;Ржев;56.2627777777778;34.3291666666667;Тверская область, Город Ржев, г. Ржев
Тверская область;Город Тверь;Тверь;56.858611111111095;35.9208333333333;Тверская область, Город Тверь, г. Тверь
Тверская область;Город Торжок;Торжок;57.0413888888889;34.9602777777778;Тверская область, Город Торжок, г. Торжок
Тверская область;Западнодвинский район;Западная Двина;56.2580555555556;32.078333333333305;Тверская область, Западнодвинский район, г. Западная Двина
Тверская область;Зубцовский район;Зубцов;56.1761111111111;34.5825;Тверская область, Зубцовский район, г. Зубцов
Тверская область;Калязинский район;Калязин;57.2402777777778;37.855;Тверская область, Калязинский район, г. Калязин
Тверская область;Кашинский район;Кашин;57.3583333333333;37.613333333333294;Тверская область, Кашинский район, г. Кашин
Тверская область;Конаковский район;Конаково;56.7133333333333;36.7794444444444;Тверская область, Конаковский район, г. Конаково
Тверская область;Краснохолмский район;Красный Холм;58.0572222222222;37.1125;Тверская область, Краснохолмский район, г. Красный Холм
Тверская область;Кувшиновский район;Кувшиново;57.0263888888889;34.1675;Тверская область, Кувшиновский район, г. Кувшиново
Тверская область;Лихославльский район;Лихославль;57.122222222222206;35.4669444444444;Тверская область, Лихославльский район, г. Лихославль
Тверская область;Нелидовский район;Нелидово;56.2233333333333;32.7766666666667;Тверская область, Нелидовский район, г. Нелидово
Тверская область;Осташковский район;Осташков;57.1458333333333;33.1116666666667;Тверская область, Осташковский район, г. Осташков
Тверская область;Старицкий район;Старица;56.501388888888904;34.933611111111105;Тверская область, Старицкий район, г. Старица
Тверская область;Торопецкий район;Торопец;56.5011111111111;31.6355555555556;Тверская область, Торопецкий район, г. Торопец
Тверская область;Удомельский район;Удомля;57.8766666666667;35.005;Тверская область, Удомельский район, г. Удомля
Томская область;Асиновский район;Асино;56.9908333333333;86.17638888888891;Томская область, Асиновский район, г. Асино
Томская область;ЗАТО город Северск;Северск;56.6033333333333;84.8808333333333;Томская область, ЗАТО город Северск, г. Северск
Томская область;;Кедровый;57.5641666666667;79.5625;Томская область, г. Кедровый
Томская область;Колпашевский район;Колпашево;58.3113888888889;82.9027777777778;Томская область, Колпашевский район, г. Колпашево
Томская область;;Стрежевой;60.7327777777778;77.6038888888889;Томская область, г. Стрежевой
Томская область;;Томск;56.4886111111111;84.9522222222222;Томская область, г. Томск
Тульская область;Белёвский район;Белев;53.8113888888889;36.13;Тульская область, Белёвский район, г. Белев
Тульская область;Богородицкий район;Богородицк;53.77;38.1225;Тульская область, Богородицкий район, г. Богородицк
Тульская область;Венёвский район;Венев;54.3541666666667;38.2644444444444;Тульская область, Венёвский район, г. Венев
Тульская область;Город Алексин;Алексин;54.502777777777794;37.066666666666706;Тульская область, Город Алексин, г. Алексин
Тульская область;Город Донской;Донской;53.9677777777778;38.3372222222222;Тульская область, Город Донской, г. Донской
Тульская область;Город Ефремов;Ефремов;53.1419444444444;38.1166666666667;Тульская область, Город Ефремов, г. Ефремов
Тульская область;Город Новомосковск;Новомосковск;54.0111111111111;38.290833333333296;Тульская область, Город Новомосковск, г. Новомосковск
Тульская область;Город Новомосковск;Сокольники;54.0688888888889;38.4786111111111;Тульская область, Город Новомосковск, г. Сокольники
Тульская область;Город Тула;Тула;54.1938888888889;37.6158333333333;Тульская область, Город Тула, г. Тула
Тульская область;Кимовский район;Кимовск;53.9697222222222;38.5380555555556;Тульская область, Кимовский район, г. Кимовск
Тульская область;Киреевский район;Болохово;54.08222222222221;37.8266666666667;Тульская область, Киреевский район, г. Болохово
Тульская область;Киреевский район;Киреевск;53.9319444444444;37.9222222222222;Тульская область, Киреевский район, г. Киреевск
Тульская область;Киреевский район;Липки;53.9416666666667;37.7019444444444;Тульская область, Киреевский район, г. Липки
Тульская область;Плавский район;Плавск;53.709722222222204;37.2863888888889;Тульская область, Плавский район, г. Плавск
Тульская область;Суворовский район;Суворов;54.1227777777778;36.5;Тульская область, Суворовский район, г. Суворов
Тульская область;Суворовский район;Чекалин;54.0986111111111;36.2475;Тульская область, Суворовский район, г. Чекалин
Тульская область;Узловский район;Узловая;53.9786111111111;38.160833333333294;Тульская область, Узловский район, г. Узловая
Тульская область;Щёкинский район;Советск;53.938888888888904;37.6316666666667;Тульская область, Щёкинский район, г. Советск
Тульская область;Щёкинский район;Щекино;54.0022222222222;37.5175;Тульская область, Щёкинский район, г. Щекино
Тульская область;Ясногорский район;Ясногорск;54.4794444444444;37.6897222222222;Тульская область, Ясногорский район, г. Ясногорск
Тюменская область;Заводоуковский район;Заводоуковск;56.500833333333304;66.5483333333333;Тюменская область, Заводоуковский район, г. Заводоуковск
Тюменская область;;Ишим;56.110833333333304;69.4733333333333;Тюменская область, г. Ишим
Тюменская область;;Тобольск;58.201666666666696;68.25388888888891;Тюменская область, г. Тобольск
Тюменская область;;Тюмень;57.1536111111111;65.54222222222221;Тюменская область, г. Тюмень
Тюменская область;;Ялуторовск;56.655;66.3127777777778;Тюменская область, г. Ялуторовск
Удмуртская республика;;Воткинск;57.0525;53.9905555555556;Удмуртская республика, г. Воткинск
Удмуртская республика;;Глазов;58.14;52.6463888888889;Удмуртская республика, г. Глазов
Удмуртская республика;;Ижевск;56.849722222222205;53.20722222222221;Удмуртская республика, г. Ижевск
Удмуртская республика;Камбарский;Камбарка;56.2652777777778;54.1944444444444;Удмуртская республика, Камбарский, г. Камбарка
Удмуртская республика;;Можга;56.4427777777778;52.2138888888889;Удмуртская республика, г. Можга
Удмуртская республика;;Сарапул;56.4772222222222;53.819166666666696;Удмуртская республика, г. Сарапул
Ульяновская область;Барышский район;Барыш;53.6533333333333;47.1180555555556;Ульяновская область, Барышский район, г. Барыш
Ульяновская область;;Димитровград;54.218888888888905;49.6038888888889;Ульяновская область, г. Димитровград
Ульяновская область;Инзенский район;Инза;53.8580555555556;46.357222222222205;Ульяновская область, Инзенский район, г. Инза
Ульяновская область;;Новоульяновск;54.14472222222221;48.391111111111094;Ульяновская область, г. Новоульяновск
Ульяновская область;Сенгилеевский район;Сенгилей;53.9555555555556;48.8072222222222;Ульяновская область, Сенгилеевский район, г. Сенгилей
Ульяновская область;;Ульяновск;54.3125;48.3955555555556;Ульяновская область, г. Ульяновск
Хабаровский край;Амурский;Амурск;50.2344444444444;136.879166666667;Хабаровский край, Амурский, г. Амурск
Хабаровский край;Бикинский;Бикин;46.818611111111096;134.255;Хабаровский край, Бикинский, г. Бикин
Хабаровский край;;Вяземский;47.53527777777779;134.755277777778;Хабаровский край, г. Вяземский
Хабаровский край;Николаевский;Николаевск-на-Амуре;53.1461111111111;140.711111111111;Хабаровский край, Николаевский, г. Николаевск-на-Амуре
Хабаровский край;Советско-Гаванский;Советская Гавань;48.9663888888889;140.285;Хабаровский край, Советско-Гаванский, г. Советская Гавань
Хабаровский край;город Комсомольск-на-Амуре;Комсомольск-на-Амуре;50.55;137.00805555555598;Хабаровский край, город Комсомольск-на-Амуре, г. Комсомольск-на-Амуре
Хабаровский край;город Хабаровск;Хабаровск;48.4725;135.057777777778;Хабаровский край, город Хабаровск, г. Хабаровск
Ханты-Мансийский автономный округ - Югра;;Когалым;62.2638888888889;74.4827777777778;Ханты-Мансийский автономный округ - Югра, г. Когалым
Ханты-Мансийский автономный округ - Югра;;Лангепас;61.2536111111111;75.1808333333333;Ханты-Мансийский автономный округ - Югра, г. Лангепас
Ханты-Мансийский автономный округ - Югра;;Мегион;61.0319444444444;76.1025;Ханты-Мансийский автономный округ - Югра, г. Мегион
Ханты-Мансийский автономный округ - Югра;;Нефтеюганск;61.099722222222205;72.6033333333333;Ханты-Мансийский автономный округ - Югра, г. Нефтеюганск
Ханты-Мансийский автономный округ - Югра;;Нижневартовск;60.9397222222222;76.56972222222221;Ханты-Мансийский автономный округ - Югра, г. Нижневартовск
Ханты-Мансийский автономный округ - Югра;;Нягань;62.1455555555556;65.3944444444444;Ханты-Мансийский автономный округ - Югра, г. Нягань
Ханты-Мансийский автономный округ - Югра;;Покачи;61.7422222222222;75.5941666666667;Ханты-Мансийский автономный округ - Югра, г. Покачи
Ханты-Мансийский автономный округ - Югра;;Пыть-Ях;60.758611111111094;72.8363888888889;Ханты-Мансийский автономный округ - Югра, г. Пыть-Ях
Ханты-Мансийский автономный округ - Югра;;Радужный;62.1341666666667;77.4583333333333;Ханты-Мансийский автономный округ - Югра, г. Радужный
Ханты-Мансийский автономный округ - Югра;Советский район;Советский;61.3697222222222;63.5605555555556;Ханты-Мансийский автономный округ - Югра, Советский район, г. Советский
Ханты-Мансийский автономный округ - Югра;;Сургут;61.2541666666667;73.3961111111111;Ханты-Мансийский автономный округ - Югра, г. Сургут
Ханты-Мансийский автономный округ - Югра;Сургутский район;Лянтор;61.639166666666696;72.17944444444441;Ханты-Мансийский автономный округ - Югра, Сургутский район, г. Лянтор
Ханты-Мансийский автономный округ - Югра;;Урай;60.129722222222206;64.8038888888889;Ханты-Мансийский автономный округ - Югра, г. Урай
Ханты-Мансийский автономный округ - Югра;;Ханты-Мансийск;61.0025;69.0183333333333;Ханты-Мансийский автономный округ - Югра, г. Ханты-Мансийск
Ханты-Мансийский автономный округ - Югра;;Югорск;61.315;63.331944444444396;Ханты-Мансийский автономный округ - Югра, г. Югорск
Челябинская область;Ашинский район;Аша;54.9905555555556;57.2783333333333;Челябинская область, Ашинский район, г. Аша
Челябинская область;Ашинский район;Миньяр;55.070833333333304;57.548333333333304;Челябинская область, Ашинский район, г. Миньяр
Челябинская область;Ашинский район;Сим;54.9908333333333;57.69;Челябинская область, Ашинский район, г. Сим
Челябинская область;Верхнеуральский район;Верхнеуральск;53.8761111111111;59.2169444444444;Челябинская область, Верхнеуральский район, г. Верхнеуральск
Челябинская область;Верхнеуфалейский;Верхний Уфалей;56.0486111111111;60.2319444444444;Челябинская область, Верхнеуфалейский, г. Верхний Уфалей
Челябинская область;Еманжелинский район;Еманжелинск;54.7522222222222;61.317222222222206;Челябинская область, Еманжелинский район, г. Еманжелинск
Челябинская область;Златоустовский;Златоуст;55.171388888888906;59.672777777777796;Челябинская область, Златоустовский, г. Златоуст
Челябинская область;Карабашский;Карабаш;55.485277777777796;60.2361111111111;Челябинская область, Карабашский, г. Карабаш
Челябинская область;Карталинский район;Карталы;53.053611111111096;60.6477777777778;Челябинская область, Карталинский район, г. Карталы
Челябинская область;Каслинский район;Касли;55.886944444444396;60.7422222222222;Челябинская область, Каслинский район, г. Касли
Челябинская область;Катав-Ивановский район;Катав-Ивановск;54.7522222222222;58.1983333333333;Челябинская область, Катав-Ивановский район, г. Катав-Ивановск
Челябинская область;Катав-Ивановский район;Юрюзань;54.85472222222221;58.422777777777796;Челябинская область, Катав-Ивановский район, г. Юрюзань
Челябинская область;Копейский;Копейск;55.116666666666696;61.6180555555556;Челябинская область, Копейский, г. Копейск
Челябинская область;Коркинский район;Коркино;54.8925;61.3930555555556;Челябинская область, Коркинский район, г. Коркино
Челябинская область;Кусинский район;Куса;55.3386111111111;59.4386111111111;Челябинская область, Кусинский район, г. Куса
Челябинская область;Кыштымский;Кыштым;55.7061111111111;60.556388888888904;Челябинская область, Кыштымский, г. Кыштым
Челябинская область;Магнитогорский;Магнитогорск;53.4072222222222;58.9791666666667;Челябинская область, Магнитогорский, г. Магнитогорск
Челябинская область;Миасский;Миасс;55.0455555555556;60.1077777777778;Челябинская область, Миасский, г. Миасс
Челябинская область;Нязепетровский район;Нязепетровск;56.053611111111096;59.6097222222222;Челябинская область, Нязепетровский район, г. Нязепетровск
Челябинская область;Озёрский;Озерск;55.7630555555556;60.7075;Челябинская область, Озёрский, г. Озерск
Челябинская область;Пластовский район;Пласт;54.3633333333333;60.8083333333333;Челябинская область, Пластовский район, г. Пласт
Челябинская область;Саткинский район;Бакал;54.9380555555556;58.8091666666667;Челябинская область, Саткинский район, г. Бакал
Челябинская область;Саткинский район;Сатка;55.0405555555556;59.0288888888889;Челябинская область, Саткинский район, г. Сатка
Челябинская область;Снежинский;Снежинск;56.0852777777778;60.7325;Челябинская область, Снежинский, г. Снежинск
Челябинская область;Троицкий;Троицк;54.0833333333333;61.559722222222206;Челябинская область, Троицкий, г. Троицк
Челябинская область;Трёхгорный;Трехгорный;54.8177777777778;58.446388888888904;Челябинская область, Трёхгорный, г. Трехгорный
Челябинская область;Усть-Катавский;Усть-Катав;54.930277777777796;58.1747222222222;Челябинская область, Усть-Катавский, г. Усть-Катав
Челябинская область;Чебаркульский;Чебаркуль;54.977777777777796;60.37;Челябинская область, Чебаркульский, г. Чебаркуль
Челябинская область;Челябинский;Челябинск;55.15972222222221;61.4025;Челябинская область, Челябинский, г. Челябинск
Челябинская область;Южноуральский;Южноуральск;54.442222222222206;61.2713888888889;Челябинская область, Южноуральский, г. Южноуральск
Чеченская республика;Городской округ Город Аргун;Аргун;43.2805555555556;45.8791666666667;Чеченская республика, Городской округ Город Аргун, г. Аргун
Чеченская республика;Городской округ Город Грозный;Грозный;43.3177777777778;45.695;Чеченская республика, Городской округ Город Грозный, г. Грозный
Чеченская республика;Гудермесский муниципальный район;Гудермес;43.3519444444444;46.1036111111111;Чеченская республика, Гудермесский муниципальный район, г. Гудермес
Чеченская республика;Урус-Мартановский муниципальный район;Урус-Мартан;43.1275;45.5405555555556;Чеченская республика, Урус-Мартановский муниципальный район, г. Урус-Мартан
Чеченская республика;Шалинский муниципальный район;Шали;43.148888888888905;45.9011111111111;Чеченская республика, Шалинский муниципальный район, г. Шали
Чувашская республика;;Алатырь;54.8419444444444;46.587777777777795;Чувашская республика, г. Алатырь
Чувашская республика;;Канаш;55.5069444444444;47.491666666666696;Чувашская республика, г. Канаш
Чувашская республика;Козловский район;Козловка;55.8405555555556;48.2577777777778;Чувашская республика, Козловский район, г. Козловка
Чувашская республика;Мариинско-Посадский район;Мариинский Посад;56.117777777777796;47.7219444444444;Чувашская республика, Мариинско-Посадский район, г. Мариинский Посад
Чувашская республика;;Новочебоксарск;56.1138888888889;47.4869444444444;Чувашская республика, г. Новочебоксарск
Чувашская республика;Цивильский район;Цивильск;55.825;47.39;Чувашская республика, Цивильский район, г. Цивильск
Чувашская республика;;Чебоксары;56.138611111111096;47.24;Чувашская республика, г. Чебоксары
Чувашская республика;;Шумерля;55.5002777777778;46.4247222222222;Чувашская республика, г. Шумерля
Чувашская республика;Ядринский район;Ядрин;55.9408333333333;46.2005555555556;Чувашская республика, Ядринский район, г. Ядрин
Чукотский автономный округ;;Анадырь;64.7347222222222;177.514722222222;Чукотский автономный округ, г. Анадырь
Чукотский автономный округ;Билибинский район;Билибино;68.0566666666667;166.452222222222;Чукотский автономный округ, Билибинский район, г. Билибино
Чукотский автономный округ;Чаунский район;Певек;69.7033333333333;170.29972222222202;Чукотский автономный округ, Чаунский район, г. Певек
Ямало-Ненецкий автономный округ;;Губкинский;64.4325;76.5005555555556;Ямало-Ненецкий автономный округ, г. Губкинский
Ямало-Ненецкий автономный округ;;Лабытнанги;66.6594444444444;66.3883333333333;Ямало-Ненецкий автономный округ, г. Лабытнанги
Ямало-Ненецкий автономный округ;;Муравленко;63.7952777777778;74.49444444444441;Ямало-Ненецкий автономный округ, г. Муравленко
Ямало-Ненецкий автономный округ;Надымский муниципальный район;Надым;65.5358333333333;72.5313888888889;Ямало-Ненецкий автономный округ, Надымский муниципальный район, г. Надым
Ямало-Ненецкий автономный округ;;Новый Уренгой;66.08388888888891;76.6811111111111;Ямало-Ненецкий автономный округ, г. Новый Уренгой
Ямало-Ненецкий автономный округ;;Ноябрьск;63.201666666666696;75.4508333333333;Ямало-Ненецкий автономный округ, г. Ноябрьск
Ямало-Ненецкий автономный округ;Пуровский муниципальный район;Тарко-Сале;64.9119444444444;77.76111111111109;Ямало-Ненецкий автономный округ, Пуровский муниципальный район, г. Тарко-Сале
Ямало-Ненецкий автономный округ;;Салехард;66.5308333333333;66.61388888888891;Ямало-Ненецкий автономный округ, г. Салехард
Ярославская область;Гаврилов-Ямский район;Гаврилов-Ям;57.3033333333333;39.849166666666704;Ярославская область, Гаврилов-Ямский район, г. Гаврилов-Ям
Ярославская область;Город Переславль-Залесский;Переславль-Залесский;56.7361111111111;38.8544444444444;Ярославская область, Город Переславль-Залесский, г. Переславль-Залесский
Ярославская область;Город Ярославль;Ярославль;57.626388888888904;39.893333333333295;Ярославская область, Город Ярославль, г. Ярославль
Ярославская область;Даниловский район;Данилов;58.1877777777778;40.1747222222222;Ярославская область, Даниловский район, г. Данилов
Ярославская область;Любимский район;Любим;58.3619444444444;40.6869444444444;Ярославская область, Любимский район, г. Любим
Ярославская область;Мышкинский район;Мышкин;57.7883333333333;38.4544444444444;Ярославская область, Мышкинский район, г. Мышкин
Ярославская область;Пошехонский район;Пошехонье;58.5036111111111;39.12;Ярославская область, Пошехонский район, г. Пошехонье
Ярославская область;Ростовский район;Ростов;57.1858333333333;39.4144444444444;Ярославская область, Ростовский район, г. Ростов
Ярославская область;Рыбинский район;Рыбинск;58.048333333333304;38.8583333333333;Ярославская область, Рыбинский район, г. Рыбинск
Ярославская область;Тутаевский район;Тутаев;57.868888888888904;39.5308333333333;Ярославская область, Тутаевский район, г. Тутаев
Ярославская область;Угличский район;Углич;57.5266666666667;38.3263888888889;Ярославская область, Угличский район, г. Углич